{"type":"FeatureCollection","features":[{"type":"Feature","properties":{"d":-30},"geometry":{"type":"LineString","coordinates":[[100.63,12.9301],[100.6275,12.9287],[100.6266,12.9255],[100.6281,12.9208],[100.6305,12.9189],[100.6328,12.921],[100.6339,12.9255],[100.6327,12.9287],[100.63,12.9301]]}},{"type":"Feature","properties":{"d":-30},"geometry":{"type":"LineString","coordinates":[[100.7033,12.887],[100.6992,12.8852],[100.6987,12.8837],[100.6996,12.8825],[100.703,12.8817],[100.706,12.8833],[100.7061,12.8858],[100.7033,12.887]]}},{"type":"Feature","properties":{"d":-65},"geometry":{"type":"LineString","coordinates":[[100.9322,12.5295],[100.9303,12.5289],[100.9294,12.5276],[100.9299,12.5261],[100.9315,12.5252],[100.9336,12.5256],[100.9346,12.5271],[100.934,12.5288],[100.9322,12.5295]]}},{"type":"Feature","properties":{"d":0},"geometry":{"type":"LineString","coordinates":[[100.9212,12.6152],[100.9207,12.6166]]}},{"type":"Feature","properties":{"d":0},"geometry":{"type":"LineString","coordinates":[[100.9636,12.6278],[100.9638,12.6274]]}},{"type":"Feature","properties":{"d":0},"geometry":{"type":"LineString","coordinates":[[100.8731,12.6374],[100.8767,12.6387],[100.8772,12.6381],[100.8764,12.6367],[100.8695,12.6337],[100.8687,12.6338],[100.8685,12.635]]}},{"type":"Feature","properties":{"d":0},"geometry":{"type":"LineString","coordinates":[[100.9704,12.6392],[100.9661,12.6354]]}},{"type":"Feature","properties":{"d":0},"geometry":{"type":"LineString","coordinates":[[100.8827,12.6462],[100.8795,12.6451]]}},{"type":"Feature","properties":{"d":0},"geometry":{"type":"LineString","coordinates":[[100.8887,12.6462],[100.8917,12.6458],[100.8913,12.6432],[100.8866,12.6435],[100.8847,12.6444]]}},{"type":"Feature","properties":{"d":0},"geometry":{"type":"LineString","coordinates":[[100.9763,12.6503],[100.9711,12.6464],[100.9697,12.6432],[100.9708,12.6405]]}},{"type":"Feature","properties":{"d":0},"geometry":{"type":"LineString","coordinates":[[100.8519,12.656],[100.8529,12.6562]]}},{"type":"Feature","properties":{"d":0},"geometry":{"type":"LineString","coordinates":[[100.9471,12.5842],[100.9473,12.5862],[100.9491,12.5857]]}},{"type":"Feature","properties":{"d":0},"geometry":{"type":"LineString","coordinates":[[100.9509,12.6023],[100.9504,12.601]]}},{"type":"Feature","properties":{"d":-20},"geometry":{"type":"LineString","coordinates":[[101.4609,12.4951],[101.4596,12.4983],[101.4552,12.5023],[101.4591,12.5078],[101.4585,12.5165],[101.4569,12.5179],[101.4503,12.5193],[101.4476,12.5185],[101.4466,12.5162],[101.4466,12.51],[101.448,12.5063],[101.4481,12.5032],[101.4465,12.5009],[101.4442,12.5],[101.4408,12.5013],[101.4395,12.5033],[101.44,12.5097],[101.4375,12.5139],[101.4395,12.5195],[101.4376,12.5215],[101.429,12.522],[101.4287,12.5193],[101.4312,12.5167],[101.4316,12.5149],[101.4281,12.5121],[101.4264,12.5077],[101.4232,12.5051],[101.4162,12.5029],[101.4071,12.5033],[101.3983,12.5049],[101.3927,12.507],[101.3874,12.5074],[101.3826,12.5094],[101.3786,12.5097],[101.3741,12.5128],[101.3501,12.5209],[101.33,12.5242],[101.3264,12.5241],[101.3243,12.5232],[101.3244,12.5145],[101.3222,12.5126],[101.3189,12.5125],[101.3157,12.514],[101.3144,12.5163],[101.3148,12.5202],[101.3173,12.5244],[101.3174,12.5263],[101.3107,12.532],[101.3082,12.5324],[101.3004,12.531],[101.2914,12.5331],[101.2816,12.5323],[101.272,12.5357],[101.2639,12.5333],[101.2628,12.539],[101.2628,12.5458],[101.268,12.5546],[101.2702,12.5662],[101.2774,12.5798],[101.2798,12.5868],[101.2803,12.5906],[101.2775,12.5858],[101.2745,12.5765],[101.2667,12.5633],[101.264,12.5554],[101.2599,12.5484],[101.2553,12.5429],[101.2546,12.5382],[101.2456,12.5299],[101.2365,12.5325],[101.2271,12.531],[101.2185,12.5327],[101.2034,12.5313],[101.1983,12.5326],[101.1896,12.5297],[101.1811,12.5314],[101.1716,12.5302],[101.1534,12.5338],[101.1435,12.5329],[101.1266,12.5335],[101.1219,12.5355],[101.1165,12.5398],[101.1079,12.535],[101.0994,12.5371],[101.095,12.5365],[101.0934,12.5348],[101.093,12.5313],[101.0955,12.5185],[101.0989,12.5152],[101.1064,12.5155],[101.1086,12.514],[101.1103,12.5104],[101.1107,12.5061],[101.1094,12.503],[101.1106,12.5003],[101.1104,12.4981]]}},{"type":"Feature","properties":{"d":-20},"geometry":{"type":"LineString","coordinates":[[101.0799,12.5048],[101.0785,12.504],[101.0782,12.5023],[101.0798,12.4999],[101.0819,12.4986],[101.0832,12.5],[101.0832,12.502],[101.0819,12.5039],[101.0799,12.5048]]}},{"type":"Feature","properties":{"d":-70},"geometry":{"type":"LineString","coordinates":[[100.9322,12.5287],[100.9308,12.5274],[100.9322,12.5262],[100.9336,12.5274],[100.9322,12.5287]]}},{"type":"Feature","properties":{"d":-40},"geometry":{"type":"LineString","coordinates":[[100.7629,12.9451],[100.7597,12.9446],[100.7577,12.9435],[100.7541,12.9373],[100.7531,12.9331],[100.7532,12.9297],[100.7543,12.9276],[100.7567,12.926],[100.7603,12.9267],[100.7632,12.9305],[100.7651,12.9404],[100.7644,12.9441],[100.7629,12.9451]]}},{"type":"Feature","properties":{"d":-5},"geometry":{"type":"LineString","coordinates":[[100.8237,12.6715],[100.8207,12.6732],[100.8184,12.681],[100.8158,12.6853],[100.814,12.6864],[100.8105,12.6865],[100.8047,12.6853],[100.7997,12.683],[100.7961,12.679],[100.7917,12.6703],[100.7862,12.6676],[100.7834,12.668],[100.7764,12.6739],[100.7733,12.6889],[100.7648,12.7023],[100.7644,12.7092],[100.7657,12.7126],[100.7713,12.7153],[100.7733,12.7196],[100.7745,12.7205],[100.7821,12.7195],[100.7965,12.7213],[100.7979,12.7228],[100.7973,12.7274],[100.7981,12.7287],[100.7991,12.7287],[100.8004,12.7261],[100.7999,12.7223],[100.8037,12.7176],[100.8068,12.71],[100.8089,12.7079],[100.814,12.7061],[100.8158,12.7043],[100.8159,12.7025],[100.8134,12.6973],[100.8149,12.6924],[100.8182,12.6883],[100.8257,12.6848],[100.8271,12.6833],[100.8268,12.6738],[100.8256,12.6721],[100.8237,12.6715]]}},{"type":"Feature","properties":{"d":-5},"geometry":{"type":"LineString","coordinates":[[100.6732,12.9203],[100.6708,12.921],[100.6685,12.9228],[100.6585,12.937],[100.648,12.9473],[100.6456,12.9508],[100.6451,12.9553],[100.6468,12.961],[100.6495,12.9649],[100.6538,12.9679],[100.6565,12.9683],[100.6591,12.9676],[100.6683,12.9606],[100.6793,12.9567],[100.6823,12.953],[100.6834,12.9457],[100.6824,12.9295],[100.6788,12.923],[100.676,12.9211],[100.6732,12.9203]]}},{"type":"Feature","properties":{"d":-5},"geometry":{"type":"LineString","coordinates":[[100.7768,12.9002],[100.775,12.9022],[100.7735,12.9106],[100.7748,12.9241],[100.776,12.9258],[100.7803,12.9286],[100.7857,12.9347],[100.7894,12.9359],[100.7907,12.9343],[100.7909,12.9305],[100.7898,12.9233],[100.7871,12.915],[100.7822,12.9048],[100.7792,12.9013],[100.7768,12.9002]]}},{"type":"Feature","properties":{"d":-5},"geometry":{"type":"LineString","coordinates":[[100.8491,12.6516],[100.8476,12.6527],[100.8472,12.654],[100.8487,12.6598],[100.8483,12.6656],[100.8417,12.6709],[100.839,12.6755],[100.8399,12.6911],[100.8369,12.6976],[100.8361,12.7074],[100.8336,12.7126],[100.8339,12.7248],[100.8316,12.7318],[100.8319,12.7408],[100.8328,12.7456],[100.8339,12.7467],[100.8384,12.7478],[100.8399,12.7525],[100.8438,12.7565],[100.8406,12.7601],[100.8412,12.7613],[100.8463,12.7635],[100.8492,12.763],[100.8502,12.7618],[100.8502,12.7604],[100.8465,12.7568],[100.8487,12.7563],[100.8518,12.7585],[100.8554,12.7649],[100.8659,12.7709],[100.8704,12.7719],[100.8768,12.7699],[100.8839,12.7696],[100.8883,12.771],[100.8944,12.7752],[100.9012,12.7884],[100.9044,12.7928],[100.9062,12.8015],[100.9037,12.8119],[100.9029,12.8192],[100.8998,12.8248],[100.9006,12.8299],[100.8971,12.8378],[100.8963,12.8463],[100.8882,12.866],[100.8775,12.8824],[100.8704,12.8906],[100.8622,12.8971],[100.8599,12.9022],[100.8553,12.909],[100.8544,12.9125],[100.8544,12.9198],[100.8591,12.9297],[100.8611,12.9312],[100.8665,12.9323],[100.874,12.9391],[100.8771,12.9437],[100.878,12.9462],[100.878,12.9524],[100.8805,12.9603],[100.8812,12.968],[100.8822,12.9714],[100.887,12.9782],[100.8971,12.9886],[100.9053,12.9994],[100.9107,13.0152],[100.9112,13.0198],[100.9083,13.0282],[100.9017,13.0395],[100.9049,13.0428],[100.904,13.0509],[100.8999,13.0568],[100.8882,13.0546]]}},{"type":"Feature","properties":{"d":-5},"geometry":{"type":"LineString","coordinates":[[100.8914,12.8395],[100.8895,12.8412],[100.8905,12.8444],[100.8917,12.8438],[100.8927,12.8417],[100.8924,12.84],[100.8914,12.8395]]}},{"type":"Feature","properties":{"d":-5},"geometry":{"type":"LineString","coordinates":[[100.6782,12.8986],[100.6759,12.8999],[100.6741,12.9034],[100.6739,12.9069],[100.6754,12.9087],[100.6784,12.9076],[100.6807,12.9037],[100.6805,12.9003],[100.6782,12.8986]]}},{"type":"Feature","properties":{"d":-5},"geometry":{"type":"LineString","coordinates":[[100.6718,12.8652],[100.669,12.8667],[100.6682,12.87],[100.6707,12.8779],[100.6733,12.8804],[100.6746,12.8797],[100.6757,12.8772],[100.6761,12.8709],[100.6747,12.8668],[100.6718,12.8652]]}},{"type":"Feature","properties":{"d":-40},"geometry":{"type":"LineString","coordinates":[[100.7502,12.716],[100.7537,12.7158],[100.7553,12.7175],[100.7585,12.7186],[100.7596,12.7204],[100.7602,12.7324],[100.7582,12.7396],[100.7513,12.7426],[100.7416,12.7571],[100.7358,12.7612],[100.7323,12.7613],[100.7293,12.7592],[100.7266,12.7548],[100.7257,12.7499]]}},{"type":"Feature","properties":{"d":-60},"geometry":{"type":"LineString","coordinates":[[100.9321,12.5302],[100.9298,12.5296],[100.928,12.528],[100.9281,12.5262],[100.9301,12.5247],[100.9333,12.5246],[100.9353,12.5265],[100.9348,12.529],[100.9321,12.5302]]}},{"type":"Feature","properties":{"d":-30},"geometry":{"type":"LineString","coordinates":[[100.7767,12.8784],[100.7752,12.8773],[100.774,12.8743],[100.7736,12.8634],[100.775,12.8588],[100.778,12.8569],[100.7798,12.859],[100.7802,12.8665],[100.7793,12.8754],[100.7781,12.8777],[100.7767,12.8784]]}},{"type":"Feature","properties":{"d":-30},"geometry":{"type":"LineString","coordinates":[[100.7762,13.0596],[100.7734,13.0548],[100.771,13.0539],[100.7678,13.0476],[100.7639,13.0381],[100.7583,13.0169],[100.7528,13.0077],[100.7489,12.9966],[100.7406,12.9784],[100.7406,12.9769],[100.7429,12.9743],[100.7427,12.9727],[100.7403,12.9705],[100.7381,12.97],[100.7364,12.971],[100.7339,12.9745],[100.7322,12.9747],[100.7307,12.9739],[100.7278,12.9657],[100.7182,12.9473],[100.7138,12.9426],[100.7054,12.9392],[100.701,12.9359],[100.6973,12.9305],[100.695,12.923],[100.6964,12.9184],[100.7039,12.9121],[100.7079,12.906],[100.7138,12.9008],[100.718,12.8945],[100.7238,12.888],[100.7264,12.8868],[100.7327,12.8868],[100.739,12.8844],[100.7447,12.8848],[100.7492,12.8829],[100.7527,12.8792],[100.7577,12.8688],[100.7612,12.8662],[100.7633,12.8672],[100.7652,12.8715],[100.7666,12.8838],[100.7686,12.8918],[100.764,12.9037],[100.7577,12.911],[100.7568,12.9157],[100.7579,12.9182],[100.7626,12.923],[100.7715,12.9347],[100.776,12.9561],[100.7763,12.9608],[100.7754,12.9673],[100.7711,12.9757],[100.7705,12.9833],[100.7737,12.9962],[100.7764,13.0019],[100.7772,13.0093],[100.7777,13.0101],[100.7814,13.01],[100.7827,13.0114],[100.7836,13.0175],[100.7833,13.0227],[100.7852,13.0295],[100.7849,13.0321],[100.7825,13.0379],[100.7842,13.0448],[100.784,13.0482],[100.7784,13.0581],[100.7762,13.0596]]}},{"type":"Feature","properties":{"d":-25},"geometry":{"type":"LineString","coordinates":[[100.7535,13.226],[100.751,13.2176],[100.7441,13.2087],[100.74,13.2],[100.7375,13.1906],[100.7336,13.1685],[100.7269,13.1528],[100.7251,13.1443],[100.7253,13.1333],[100.7291,13.1135],[100.7307,13.0946],[100.7359,13.075],[100.737,13.0676],[100.7369,13.0571],[100.7342,13.0298],[100.7322,13.024],[100.7241,13.0109],[100.7152,12.9903],[100.7117,12.9793],[100.7121,12.9726],[100.7115,12.9697],[100.7013,12.9468],[100.695,12.9351],[100.6898,12.9201],[100.6906,12.9163],[100.6979,12.9072],[100.6994,12.9005],[100.6972,12.8951],[100.6883,12.8853],[100.6889,12.882],[100.6947,12.8715],[100.6945,12.8651],[100.6961,12.8558],[100.6948,12.8527],[100.688,12.8463],[100.6846,12.8419],[100.6836,12.8388],[100.6843,12.8354],[100.6871,12.8321],[100.6911,12.8317],[100.6947,12.8331],[100.7037,12.8392],[100.7072,12.8396],[100.7187,12.8316],[100.7295,12.8259],[100.7317,12.8222],[100.731,12.8178],[100.7267,12.8079],[100.7206,12.8015],[100.7123,12.795],[100.7078,12.7838],[100.7036,12.7766],[100.7018,12.7751],[100.6996,12.7746],[100.6941,12.7767],[100.6921,12.7823],[100.6933,12.7917],[100.6919,12.796],[100.6869,12.8002],[100.6783,12.8019],[100.6756,12.8042],[100.6718,12.8213],[100.6695,12.8366],[100.6682,12.8398],[100.6658,12.8421],[100.6609,12.8446],[100.6565,12.8457],[100.6446,12.8434],[100.6355,12.8443],[100.6337,12.8415],[100.6294,12.8279],[100.627,12.8249],[100.6241,12.8237],[100.6212,12.8241],[100.6182,12.8264],[100.6147,12.8317],[100.613,12.8366],[100.6103,12.8619],[100.6044,12.8759],[100.6027,12.8834],[100.6027,12.8928],[100.6051,12.9005],[100.6106,12.9058],[100.6137,12.9109],[100.6149,12.9113],[100.6197,12.9047],[100.6329,12.8785],[100.6353,12.8779],[100.6385,12.8799],[100.6413,12.8833],[100.6426,12.887],[100.6404,12.9034],[100.6414,12.9233],[100.6407,12.9275],[100.6375,12.9327],[100.6329,12.9378],[100.6286,12.9404],[100.6204,12.9431],[100.619,12.9456],[100.6224,12.9576],[100.6335,12.9636],[100.6396,12.9705],[100.6421,12.975],[100.6439,12.9854],[100.6447,13.003],[100.6474,13.0188],[100.6459,13.0245],[100.6416,13.028],[100.6354,13.0282],[100.6287,13.025],[100.6107,13.0075],[100.6054,13.0013],[100.6026,12.9963],[100.601,12.991],[100.6007,12.9712],[100.6,12.9679],[100.5987,12.9661],[100.596,12.9657],[100.5929,12.9677],[100.5864,12.9788],[100.5834,12.982],[100.5795,12.9824],[100.576,12.9793],[100.5735,12.9728],[100.5715,12.9585],[100.5695,12.9507],[100.5538,12.9099],[100.5477,12.8812],[100.5453,12.8753],[100.5421,12.8711],[100.5395,12.8696],[100.5362,12.8691],[100.5152,12.8708],[100.5097,12.8722],[100.5058,12.875],[100.503,12.8797],[100.4923,12.9071],[100.4886,12.9261],[100.4864,12.9334],[100.4827,12.9395],[100.479,12.9414],[100.4763,12.9401],[100.4743,12.9368],[100.4728,12.9314],[100.4722,12.9249],[100.4731,12.9162],[100.4774,12.8976],[100.48,12.8716],[100.483,12.8537],[100.4822,12.8443],[100.4788,12.838],[100.4761,12.8372],[100.4737,12.8393],[100.4687,12.855],[100.4653,12.861],[100.46,12.8658],[100.4539,12.8684]]}},{"type":"Feature","properties":{"d":0},"geometry":{"type":"LineString","coordinates":[[100.8938,12.661],[100.8935,12.6609]]}},{"type":"Feature","properties":{"d":-35},"geometry":{"type":"LineString","coordinates":[[100.7597,12.9649],[100.7544,12.9614],[100.7503,12.9575],[100.744,12.9449],[100.7419,12.9374],[100.7411,12.9261],[100.7367,12.9133],[100.7359,12.9082],[100.7369,12.9026],[100.7398,12.8976],[100.7424,12.8953],[100.7495,12.8913],[100.7565,12.8828],[100.7588,12.8814],[100.7605,12.8823],[100.7624,12.8854],[100.7645,12.8934],[100.7619,12.9028],[100.7555,12.908],[100.7524,12.9121],[100.7515,12.9189],[100.7531,12.9209],[100.758,12.9223],[100.7609,12.924],[100.7687,12.9344],[100.7713,12.9468],[100.7718,12.9542],[100.7713,12.9577],[100.7694,12.9605],[100.7597,12.9649]]}},{"type":"Feature","properties":{"d":-15},"geometry":{"type":"LineString","coordinates":[[100.9132,12.5992],[100.9105,12.5981],[100.9098,12.5937],[100.9126,12.5927],[100.917,12.593],[100.9173,12.5945],[100.916,12.5971],[100.9148,12.5987],[100.9132,12.5992]]}},{"type":"Feature","properties":{"d":-15},"geometry":{"type":"LineString","coordinates":[[100.9057,12.6063],[100.9033,12.6044],[100.903,12.6027],[100.9038,12.6018],[100.9059,12.6017],[100.9072,12.6028],[100.9071,12.6052],[100.9057,12.6063]]}},{"type":"Feature","properties":{"d":-15},"geometry":{"type":"LineString","coordinates":[[100.8533,12.8525],[100.8516,12.8518],[100.8502,12.8495],[100.848,12.8397],[100.8489,12.8297],[100.8503,12.8279],[100.8514,12.8289],[100.8541,12.8376],[100.8531,12.8436],[100.8549,12.8504],[100.8544,12.8519],[100.8533,12.8525]]}},{"type":"Feature","properties":{"d":-15},"geometry":{"type":"LineString","coordinates":[[100.8483,12.9031],[100.8473,12.9013],[100.8491,12.8992],[100.8498,12.9014],[100.8483,12.9031]]}},{"type":"Feature","properties":{"d":0},"geometry":{"type":"LineString","coordinates":[[101.0731,12.6752],[101.0737,12.6736],[101.0731,12.6723],[101.0722,12.6736],[101.0724,12.6751]]}},{"type":"Feature","properties":{"d":0},"geometry":{"type":"LineString","coordinates":[[101.1022,12.6787],[101.0986,12.6777],[101.0964,12.6759],[101.0938,12.6766]]}},{"type":"Feature","properties":{"d":0},"geometry":{"type":"LineString","coordinates":[[101.0643,12.6715],[101.0638,12.6706],[101.0627,12.6709]]}},{"type":"Feature","properties":{"d":0},"geometry":{"type":"LineString","coordinates":[[101.0963,12.6692],[101.0927,12.6723],[101.0961,12.6737],[101.0968,12.6704],[101.0963,12.6692]]}},{"type":"Feature","properties":{"d":0},"geometry":{"type":"LineString","coordinates":[[101.1364,12.6638],[101.1357,12.664]]}},{"type":"Feature","properties":{"d":-10},"geometry":{"type":"LineString","coordinates":[[100.8498,12.6501],[100.847,12.6516],[100.8459,12.6532],[100.8461,12.66],[100.845,12.6653],[100.8386,12.6723],[100.8373,12.6751],[100.8373,12.6908],[100.8352,12.6984],[100.8341,12.7066],[100.832,12.7113],[100.8309,12.724],[100.829,12.7297],[100.8297,12.7453],[100.8321,12.7498],[100.8337,12.7506],[100.8366,12.7506],[100.8376,12.7514],[100.8394,12.7556],[100.8371,12.7576],[100.8368,12.7588],[100.8386,12.7622],[100.8473,12.7668],[100.8526,12.7673],[100.8565,12.7689],[100.8599,12.7715],[100.8629,12.7755],[100.8623,12.7803],[100.8564,12.7882],[100.858,12.8003],[100.857,12.8044],[100.8536,12.8104],[100.8543,12.8137],[100.8569,12.8156],[100.8588,12.8138],[100.8598,12.7999],[100.8605,12.798],[100.8628,12.7968],[100.8664,12.7974],[100.8772,12.8113],[100.8798,12.8203],[100.8852,12.8346],[100.8873,12.8353],[100.89,12.8318],[100.8913,12.8326],[100.8919,12.8347],[100.8913,12.8364],[100.8883,12.8385],[100.8862,12.8412],[100.8786,12.8359],[100.8772,12.836],[100.8758,12.8374],[100.8755,12.84],[100.8771,12.843],[100.8793,12.8448],[100.8833,12.8464],[100.8844,12.8479],[100.8847,12.8557],[100.8828,12.8645],[100.8736,12.8758],[100.8697,12.8792],[100.8685,12.8847],[100.8642,12.8865],[100.8607,12.8898],[100.8574,12.9014],[100.8543,12.9054],[100.8516,12.9157],[100.8528,12.9235],[100.8557,12.9281],[100.8569,12.9324],[100.8617,12.9356],[100.8634,12.9385],[100.8625,12.944],[100.8578,12.9434],[100.8568,12.9449],[100.8572,12.9469],[100.8622,12.9521],[100.8635,12.9562],[100.8662,12.9592],[100.8682,12.9601],[100.8709,12.9591],[100.8736,12.9614],[100.8792,12.9741],[100.8782,12.9836],[100.879,12.9933],[100.8773,13.0042],[100.8774,13.0088],[100.8763,13.0101],[100.8726,13.0085],[100.8712,13.0107],[100.8727,13.0175],[100.8747,13.0229],[100.8719,13.0289],[100.8729,13.0547],[100.8737,13.0581],[100.8708,13.0635],[100.8709,13.0658],[100.8726,13.0666],[100.8743,13.0651],[100.8791,13.0567],[100.8831,13.0463],[100.8886,13.044],[100.8939,13.0441],[100.8973,13.0454],[100.8989,13.0486],[100.898,13.0517],[100.8961,13.0535],[100.8938,13.0539],[100.889,13.0531],[100.8871,13.054],[100.8791,13.0673],[100.8743,13.0693],[100.8732,13.0729],[100.8692,13.0768],[100.8682,13.0793],[100.8684,13.0885],[100.8729,13.112],[100.8759,13.1197],[100.8824,13.1317],[100.8864,13.146],[100.8917,13.1541],[100.8937,13.1646],[100.8969,13.1724],[100.8969,13.1818],[100.8982,13.19],[100.8957,13.1996],[100.8958,13.2094],[100.894,13.2206],[100.8907,13.2332],[100.8879,13.2404],[100.8893,13.2479],[100.8893,13.2551],[100.8873,13.2619],[100.8876,13.2714],[100.8854,13.2777],[100.8858,13.2822],[100.8851,13.2864],[100.8874,13.2997],[100.8873,13.315],[100.8884,13.3188],[100.8916,13.3228],[100.893,13.326],[100.8948,13.3344],[100.8948,13.3417],[100.8937,13.344],[100.8919,13.345],[100.8842,13.3436],[100.8819,13.3442],[100.8702,13.3574]]}},{"type":"Feature","properties":{"d":-10},"geometry":{"type":"LineString","coordinates":[[100.7909,12.9397],[100.788,12.9419],[100.7874,12.9442],[100.7898,12.9461],[100.7933,12.9464],[100.7951,12.9448],[100.7952,12.9429],[100.7938,12.9411],[100.7909,12.9397]]}},{"type":"Feature","properties":{"d":-10},"geometry":{"type":"LineString","coordinates":[[100.6767,12.8906],[100.6746,12.8924],[100.6678,12.9027],[100.6665,12.9074],[100.6664,12.9152],[100.663,12.9225],[100.6567,12.9309],[100.6441,12.9444],[100.6412,12.9502],[100.6412,12.9565],[100.6441,12.9636],[100.652,12.9734],[100.6564,12.9759],[100.6611,12.9755],[100.6695,12.9675],[100.6818,12.9632],[100.685,12.9598],[100.6869,12.9548],[100.6874,12.9475],[100.6854,12.9296],[100.6824,12.9231],[100.6761,12.9157],[100.6767,12.9142],[100.6811,12.9106],[100.6839,12.9071],[100.6853,12.9039],[100.6854,12.9007],[100.6828,12.8954],[100.6767,12.8906]]}},{"type":"Feature","properties":{"d":-15},"geometry":{"type":"LineString","coordinates":[[100.6735,12.8519],[100.6692,12.853],[100.6633,12.8563],[100.6592,12.8602],[100.6567,12.8644],[100.656,12.8696],[100.6576,12.8746],[100.6628,12.8813],[100.6701,12.8868],[100.6707,12.8889],[100.6619,12.9011],[100.6595,12.9079],[100.6588,12.9178],[100.657,12.9227],[100.6541,12.9271],[100.6406,12.9423],[100.6383,12.9464],[100.6372,12.9507],[100.638,12.9574],[100.642,12.9654],[100.654,12.9819],[100.6573,12.9847],[100.6606,12.9858],[100.6637,12.9855],[100.6663,12.9838],[100.6734,12.9743],[100.682,12.9722],[100.6862,12.9696],[100.6901,12.964],[100.6921,12.9566],[100.6918,12.9491],[100.688,12.9306],[100.686,12.9252],[100.6814,12.9165],[100.6822,12.9142],[100.6879,12.9073],[100.6894,12.9027],[100.6877,12.8966],[100.6808,12.888],[100.6798,12.8857],[100.6846,12.8728],[100.6848,12.8639],[100.6833,12.8593],[100.6807,12.8553],[100.6774,12.8528],[100.6735,12.8519]]}},{"type":"Feature","properties":{"d":-15},"geometry":{"type":"LineString","coordinates":[[100.7876,12.9475],[100.7933,12.9487],[100.7958,12.9463],[100.7969,12.944],[100.7966,12.942],[100.7942,12.9381],[100.7948,12.9322],[100.7926,12.9145],[100.7899,12.9082],[100.7871,12.9041],[100.7801,12.8971],[100.7775,12.8959],[100.7751,12.8959],[100.7727,12.8972],[100.7708,12.8999],[100.7647,12.9119],[100.7644,12.9154],[100.7696,12.9262],[100.7767,12.9313],[100.7776,12.9388],[100.7821,12.949],[100.7842,12.9504],[100.7863,12.948],[100.7876,12.9475]]}},{"type":"Feature","properties":{"d":-15},"geometry":{"type":"LineString","coordinates":[[100.8286,12.9993],[100.8283,13.0018],[100.8301,13.0039],[100.83,13.0017],[100.8286,12.9993]]}},{"type":"Feature","properties":{"d":-15},"geometry":{"type":"LineString","coordinates":[[100.826,12.9907],[100.8256,12.9931],[100.8272,12.9954],[100.8275,12.9927],[100.826,12.9907]]}},{"type":"Feature","properties":{"d":-15},"geometry":{"type":"LineString","coordinates":[[100.8204,12.9735],[100.8198,12.9747],[100.8202,12.9771],[100.8229,12.9844],[100.8242,12.9855],[100.8244,12.9822],[100.8216,12.9747],[100.8204,12.9735]]}},{"type":"Feature","properties":{"d":-20},"geometry":{"type":"LineString","coordinates":[[101.065,12.4984],[101.0649,12.5008]]}},{"type":"Feature","properties":{"d":-5},"geometry":{"type":"LineString","coordinates":[[100.8784,12.6098],[100.8752,12.6117],[100.8748,12.6152],[100.8789,12.6196],[100.8823,12.6198],[100.8846,12.6178],[100.885,12.6149],[100.8809,12.6108],[100.8784,12.6098]]}},{"type":"Feature","properties":{"d":0},"geometry":{"type":"LineString","coordinates":[[101.1459,12.6603],[101.1449,12.6595],[101.1449,12.6569],[101.1432,12.6578]]}},{"type":"Feature","properties":{"d":0},"geometry":{"type":"LineString","coordinates":[[101.0384,12.6636],[101.0415,12.6635],[101.0396,12.6624],[101.0382,12.6633]]}},{"type":"Feature","properties":{"d":0},"geometry":{"type":"LineString","coordinates":[[101.0324,12.6632],[101.0311,12.6623],[101.0261,12.6625],[101.0051,12.6591],[100.9925,12.6557]]}},{"type":"Feature","properties":{"d":-10},"geometry":{"type":"LineString","coordinates":[[100.776,12.8977],[100.7733,12.8996],[100.7669,12.9125],[100.7667,12.9153],[100.7701,12.9225],[100.7726,12.9258],[100.7786,12.9298],[100.7828,12.9356],[100.7904,12.9388],[100.7924,12.9359],[100.793,12.9323],[100.7917,12.9226],[100.7897,12.9147],[100.7845,12.9045],[100.7799,12.8993],[100.776,12.8977]]}},{"type":"Feature","properties":{"d":-10},"geometry":{"type":"LineString","coordinates":[[100.8064,12.9236],[100.8045,12.9247],[100.8037,12.927],[100.8045,12.9304],[100.8063,12.9317],[100.808,12.9304],[100.8091,12.927],[100.8083,12.9246],[100.8064,12.9236]]}},{"type":"Feature","properties":{"d":-10},"geometry":{"type":"LineString","coordinates":[[100.8274,12.9208],[100.8253,12.9222],[100.8249,12.9247],[100.8269,12.9274],[100.8294,12.928],[100.8307,12.9265],[100.8308,12.924],[100.8294,12.9218],[100.8274,12.9208]]}},{"type":"Feature","properties":{"d":-10},"geometry":{"type":"LineString","coordinates":[[100.8518,12.8746],[100.8497,12.8741],[100.8486,12.8716],[100.848,12.8639],[100.8458,12.852],[100.8459,12.8475],[100.8442,12.844],[100.8438,12.838],[100.8424,12.8363],[100.8407,12.8398],[100.8411,12.8419],[100.843,12.8449],[100.842,12.8526],[100.8425,12.8607],[100.841,12.8678],[100.8407,12.8737],[100.8449,12.8933],[100.8457,12.893],[100.8464,12.8899],[100.848,12.888],[100.8538,12.8856],[100.8549,12.8843],[100.8542,12.876],[100.8535,12.875],[100.8518,12.8746]]}},{"type":"Feature","properties":{"d":-10},"geometry":{"type":"LineString","coordinates":[[100.6725,12.8582],[100.6685,12.8593],[100.6649,12.8621],[100.6629,12.8659],[100.6624,12.8702],[100.6642,12.8754],[100.6677,12.8808],[100.6712,12.8839],[100.6752,12.8854],[100.6768,12.8841],[100.6801,12.8763],[100.6809,12.8683],[100.6801,12.8644],[100.6783,12.8612],[100.6756,12.859],[100.6725,12.8582]]}},{"type":"Feature","properties":{"d":-10},"geometry":{"type":"LineString","coordinates":[[100.7021,12.7906],[100.7001,12.7927],[100.6966,12.8001],[100.6952,12.805],[100.6953,12.8088],[100.6972,12.8133],[100.7008,12.8176],[100.7041,12.8194],[100.7079,12.8195],[100.7107,12.8183],[100.7128,12.8162],[100.7138,12.8135],[100.7138,12.8106],[100.7037,12.7922],[100.7021,12.7906]]}},{"type":"Feature","properties":{"d":-10},"geometry":{"type":"LineString","coordinates":[[100.8813,12.7997],[100.8793,12.7991],[100.8754,12.7948],[100.8706,12.7914],[100.8697,12.7895],[100.8704,12.7879],[100.8721,12.7871],[100.8744,12.7876],[100.88,12.7924],[100.8848,12.791],[100.8866,12.7921],[100.8876,12.7944],[100.8868,12.7978],[100.8853,12.7989],[100.8813,12.7997]]}},{"type":"Feature","properties":{"d":-10},"geometry":{"type":"LineString","coordinates":[[100.7793,12.732],[100.7774,12.7325],[100.7767,12.7339],[100.7786,12.7396],[100.7855,12.7487],[100.7874,12.7497],[100.7883,12.7473],[100.7879,12.7401],[100.7868,12.7366],[100.7839,12.7331],[100.7793,12.732]]}},{"type":"Feature","properties":{"d":-10},"geometry":{"type":"LineString","coordinates":[[100.8237,12.6699],[100.8214,12.6703],[100.8197,12.6716],[100.8162,12.6825],[100.8144,12.6843],[100.8119,12.6847],[100.8085,12.6837],[100.8041,12.6807],[100.7947,12.6693],[100.7858,12.6665],[100.7827,12.6672],[100.7753,12.6737],[100.7718,12.6885],[100.7687,12.6949],[100.7636,12.7021],[100.7633,12.7093],[100.765,12.7133],[100.7703,12.7166],[100.7732,12.7217],[100.7801,12.721],[100.7867,12.7223],[100.7936,12.7255],[100.797,12.7315],[100.7987,12.7319],[100.8006,12.7312],[100.8024,12.7279],[100.8021,12.7221],[100.8053,12.7175],[100.808,12.7114],[100.8103,12.709],[100.8161,12.7059],[100.8176,12.7041],[100.8179,12.7023],[100.8164,12.6969],[100.8179,12.6921],[100.8203,12.6895],[100.8263,12.687],[100.8283,12.6843],[100.8288,12.6813],[100.8282,12.6732],[100.8266,12.6707],[100.8237,12.6699]]}},{"type":"Feature","properties":{"d":-10},"geometry":{"type":"LineString","coordinates":[[101.0081,12.6224],[101.0001,12.6211],[100.9943,12.6191],[100.9854,12.6102],[100.9801,12.6066],[100.9743,12.6047],[100.9712,12.6019],[100.9689,12.5938],[100.9703,12.586],[100.97,12.5823],[100.9684,12.5775],[100.9638,12.5734],[100.9622,12.5705],[100.9643,12.5635],[100.964,12.5597],[100.956,12.551],[100.9541,12.5498],[100.9522,12.5497],[100.9469,12.5522],[100.9422,12.5569],[100.9421,12.5607],[100.9404,12.566],[100.9427,12.5693],[100.9431,12.5711],[100.9403,12.5779],[100.9397,12.5781],[100.9393,12.5767],[100.9394,12.5678],[100.9383,12.5671],[100.9365,12.5673],[100.933,12.5692],[100.9304,12.5719],[100.9287,12.5788],[100.9233,12.5805],[100.9176,12.5847],[100.9183,12.5854],[100.9275,12.5861],[100.9315,12.5831],[100.9355,12.5829],[100.9369,12.5837],[100.9376,12.5858],[100.9373,12.5878],[100.9361,12.5897],[100.9275,12.5963],[100.9248,12.5968],[100.9204,12.5964],[100.9182,12.5973],[100.9134,12.6022],[100.9097,12.6095],[100.9,12.6129],[100.8971,12.6178],[100.8955,12.6236],[100.8941,12.6252],[100.8872,12.6267],[100.8838,12.6298],[100.8795,12.6311],[100.8729,12.6304],[100.8682,12.6273],[100.8657,12.6279],[100.8609,12.6335],[100.8614,12.6379],[100.8605,12.6404],[100.8561,12.6438],[100.8511,12.6493]]}},{"type":"Feature","properties":{"d":-15},"geometry":{"type":"LineString","coordinates":[[100.7914,12.7284],[100.7928,12.729],[100.7952,12.7324],[100.7974,12.7338],[100.8014,12.7341],[100.8035,12.7329],[100.8045,12.7279],[100.8033,12.724],[100.8038,12.7216],[100.8101,12.711],[100.8198,12.7039],[100.82,12.702],[100.8187,12.6974],[100.8202,12.6925],[100.8219,12.6913],[100.8264,12.6908],[100.8291,12.6872],[100.8301,12.6822],[100.8301,12.6754],[100.8291,12.6712],[100.8272,12.6688],[100.8219,12.6682],[100.8189,12.6696],[100.8173,12.6723],[100.8153,12.6811],[100.8142,12.6826],[100.8127,12.683],[100.8104,12.6818],[100.8081,12.6777],[100.8075,12.6661],[100.8062,12.6637],[100.8045,12.6636],[100.7989,12.6668],[100.7919,12.6668],[100.7849,12.6657],[100.7829,12.6661],[100.7743,12.6736],[100.7721,12.6837],[100.7684,12.6931],[100.762,12.7021],[100.7628,12.7109],[100.7651,12.7147],[100.7699,12.718],[100.7714,12.7245],[100.7786,12.7221],[100.7812,12.7228],[100.7833,12.7247],[100.7823,12.7269],[100.7794,12.7282],[100.775,12.7284],[100.7711,12.7272],[100.7706,12.731],[100.7757,12.7434],[100.7801,12.7506],[100.7873,12.7706],[100.7897,12.7745],[100.7916,12.7756],[100.793,12.7741],[100.7936,12.769],[100.7896,12.7315],[100.7899,12.7293],[100.7914,12.7284]]}},{"type":"Feature","properties":{"d":-15},"geometry":{"type":"LineString","coordinates":[[100.7035,12.7835],[100.7014,12.7848],[100.699,12.7891],[100.6916,12.8053],[100.6907,12.8107],[100.6923,12.8151],[100.6993,12.8229],[100.7028,12.8249],[100.7071,12.8255],[100.7117,12.824],[100.7156,12.8206],[100.7177,12.8164],[100.7181,12.8113],[100.7169,12.8073],[100.7087,12.7972],[100.7061,12.7912],[100.7053,12.785],[100.7035,12.7835]]}},{"type":"Feature","properties":{"d":-20},"geometry":{"type":"LineString","coordinates":[[100.8092,12.7512],[100.8081,12.7527],[100.809,12.7556],[100.8127,12.7604],[100.8155,12.7615],[100.8155,12.7584],[100.8143,12.7543],[100.8123,12.7524],[100.8092,12.7512]]}},{"type":"Feature","properties":{"d":-20},"geometry":{"type":"LineString","coordinates":[[100.8325,12.6852],[100.8321,12.6832],[100.8328,12.6812],[100.8333,12.6836],[100.8325,12.6852]]}},{"type":"Feature","properties":{"d":-20},"geometry":{"type":"LineString","coordinates":[[100.8328,12.6737],[100.8315,12.6722],[100.8309,12.6691],[100.8312,12.6666],[100.8325,12.6658],[100.8343,12.6665],[100.8351,12.6683],[100.8328,12.6737]]}},{"type":"Feature","properties":{"d":-15},"geometry":{"type":"LineString","coordinates":[[100.827,12.9173],[100.8239,12.9214],[100.8235,12.9246],[100.8265,12.9292],[100.8301,12.9309],[100.8323,12.9287],[100.8328,12.924],[100.8312,12.9213],[100.827,12.9173]]}},{"type":"Feature","properties":{"d":0},"geometry":{"type":"LineString","coordinates":[[100.8022,12.7117],[100.8029,12.7089]]}},{"type":"Feature","properties":{"d":0},"geometry":{"type":"LineString","coordinates":[[100.8486,12.6894],[100.8453,12.6946]]}},{"type":"Feature","properties":{"d":0},"geometry":{"type":"LineString","coordinates":[[100.7882,12.7167],[100.7913,12.7155]]}},{"type":"Feature","properties":{"d":0},"geometry":{"type":"LineString","coordinates":[[100.7769,12.7116],[100.7768,12.7143]]}},{"type":"Feature","properties":{"d":0},"geometry":{"type":"LineString","coordinates":[[100.8454,12.6729],[100.8448,12.6721]]}},{"type":"Feature","properties":{"d":0},"geometry":{"type":"LineString","coordinates":[[100.7875,12.6725],[100.787,12.6708],[100.7853,12.6699]]}},{"type":"Feature","properties":{"d":0},"geometry":{"type":"LineString","coordinates":[[100.8025,12.693],[100.7986,12.6917]]}},{"type":"Feature","properties":{"d":0},"geometry":{"type":"LineString","coordinates":[[100.8482,12.6885],[100.8485,12.6888]]}},{"type":"Feature","properties":{"d":0},"geometry":{"type":"LineString","coordinates":[[100.9925,12.6557],[100.978,12.6509]]}},{"type":"Feature","properties":{"d":0},"geometry":{"type":"LineString","coordinates":[[100.8543,12.6569],[100.8546,12.6571]]}},{"type":"Feature","properties":{"d":-10},"geometry":{"type":"LineString","coordinates":[[100.9707,12.522],[100.9702,12.5208],[100.9725,12.5197],[100.9722,12.5212],[100.9707,12.522]]}},{"type":"Feature","properties":{"d":-10},"geometry":{"type":"LineString","coordinates":[[100.9729,12.5139],[100.9676,12.5161],[100.965,12.5161],[100.9609,12.5134],[100.9578,12.5081],[100.9555,12.5082],[100.9518,12.5157],[100.9527,12.5238],[100.9524,12.529],[100.9538,12.532],[100.9574,12.5341],[100.96,12.5337],[100.9623,12.5317],[100.9648,12.5254],[100.974,12.5228],[100.9753,12.5205],[100.9753,12.5161],[100.9746,12.5145],[100.9729,12.5139]]}},{"type":"Feature","properties":{"d":-10},"geometry":{"type":"LineString","coordinates":[[100.9408,12.5987],[100.9392,12.598],[100.9391,12.5965],[100.9404,12.5954],[100.9421,12.5954],[100.9429,12.5973],[100.9408,12.5987]]}},{"type":"Feature","properties":{"d":-10},"geometry":{"type":"LineString","coordinates":[[100.8883,12.6159],[100.8921,12.6163],[100.8942,12.6155],[100.8978,12.6096],[100.897,12.6073],[100.8945,12.6062],[100.8911,12.6066],[100.8863,12.612],[100.8817,12.6084],[100.8785,12.6084],[100.8755,12.6101],[100.8737,12.6132],[100.8743,12.617],[100.8781,12.6211],[100.8801,12.622],[100.8834,12.6215],[100.8883,12.6159]]}},{"type":"Feature","properties":{"d":-10},"geometry":{"type":"LineString","coordinates":[[100.9372,12.5359],[100.9358,12.5364],[100.935,12.5377],[100.9353,12.5392],[100.9363,12.5399],[100.9376,12.5397],[100.9387,12.5381],[100.9385,12.5367],[100.9372,12.5359]]}},{"type":"Feature","properties":{"d":-10},"geometry":{"type":"LineString","coordinates":[[100.9502,12.5943],[100.9494,12.5929],[100.9506,12.5917],[100.9513,12.593],[100.9502,12.5943]]}},{"type":"Feature","properties":{"d":-10},"geometry":{"type":"LineString","coordinates":[[100.874,12.6453],[100.8687,12.6505]]}},{"type":"Feature","properties":{"d":-10},"geometry":{"type":"LineString","coordinates":[[100.8581,12.6509],[100.8593,12.6488],[100.8651,12.646],[100.8678,12.6377]]}},{"type":"Feature","properties":{"d":-10},"geometry":{"type":"LineString","coordinates":[[100.9114,12.6307],[100.907,12.6296],[100.9065,12.6289],[100.9119,12.6145],[100.9129,12.6165],[100.9112,12.6226],[100.9124,12.6295],[100.9114,12.6307]]}},{"type":"Feature","properties":{"d":-10},"geometry":{"type":"LineString","coordinates":[[100.8714,12.6393],[100.8718,12.642],[100.874,12.6438]]}},{"type":"Feature","properties":{"d":-15},"geometry":{"type":"LineString","coordinates":[[100.9695,12.5258],[100.9738,12.5256],[100.9765,12.5234],[100.9773,12.5185],[100.9762,12.5141],[100.9731,12.5125],[100.9668,12.5135],[100.9622,12.5126],[100.958,12.5068],[100.9565,12.5064],[100.955,12.507],[100.9512,12.5156],[100.9515,12.5288],[100.9528,12.5324],[100.9566,12.5349],[100.9595,12.5348],[100.9632,12.5323],[100.9662,12.5269],[100.9695,12.5258]]}},{"type":"Feature","properties":{"d":-15},"geometry":{"type":"LineString","coordinates":[[100.9718,12.5475],[100.9698,12.5485],[100.9698,12.5505],[100.9719,12.553],[100.974,12.5532],[100.9754,12.552],[100.9756,12.5502],[100.974,12.5482],[100.9718,12.5475]]}},{"type":"Feature","properties":{"d":-15},"geometry":{"type":"LineString","coordinates":[[100.9372,12.535],[100.9351,12.5359],[100.9341,12.5378],[100.9346,12.5399],[100.9364,12.5411],[100.9385,12.5403],[100.9395,12.5382],[100.939,12.536],[100.9372,12.535]]}},{"type":"Feature","properties":{"d":-15},"geometry":{"type":"LineString","coordinates":[[100.9236,12.5933],[100.9208,12.5926],[100.9201,12.5909],[100.9218,12.5889],[100.9252,12.5888],[100.9265,12.5898],[100.9266,12.5915],[100.9254,12.5928],[100.9236,12.5933]]}},{"type":"Feature","properties":{"d":-15},"geometry":{"type":"LineString","coordinates":[[101.0326,12.5699],[101.0153,12.566],[101.0073,12.5672],[101.0052,12.569],[101.0048,12.5708],[101.0054,12.5725],[101.012,12.5775],[101.0262,12.5837]]}},{"type":"Feature","properties":{"d":-20},"geometry":{"type":"LineString","coordinates":[[100.7029,12.7815],[100.7002,12.7827],[100.698,12.7858],[100.6942,12.7961],[100.6858,12.809],[100.6844,12.8165],[100.6862,12.8203],[100.6929,12.8236],[100.6996,12.8293],[100.7034,12.8311],[100.7071,12.8315],[100.7132,12.829],[100.7204,12.8232],[100.7225,12.8191],[100.7226,12.813],[100.721,12.8069],[100.7111,12.7972],[100.7084,12.7919],[100.7064,12.7841],[100.705,12.7823],[100.7029,12.7815]]}},{"type":"Feature","properties":{"d":-20},"geometry":{"type":"LineString","coordinates":[[100.8321,12.7631],[100.8294,12.7623],[100.829,12.7604],[100.8312,12.7597],[100.8327,12.7601],[100.8335,12.7622],[100.8321,12.7631]]}},{"type":"Feature","properties":{"d":-20},"geometry":{"type":"LineString","coordinates":[[100.8356,13.0029],[100.8333,13.001],[100.8323,12.9953],[100.8225,12.9637],[100.82,12.9573],[100.8169,12.9534],[100.8158,12.9504],[100.815,12.9377],[100.8161,12.928],[100.8142,12.9229],[100.8105,12.9183],[100.8093,12.9123],[100.8097,12.9021],[100.8092,12.8913],[100.8107,12.8875],[100.8105,12.8835],[100.8113,12.8818],[100.8131,12.8836],[100.8156,12.8897],[100.8169,12.8957],[100.8212,12.9023],[100.8225,12.9168],[100.8219,12.924],[100.8263,12.9346],[100.8292,12.9471],[100.8307,12.9491],[100.8361,12.9496],[100.8371,12.9483],[100.8376,12.9454],[100.8373,12.9413],[100.8358,12.9375],[100.837,12.9309],[100.8359,12.9239],[100.8342,12.9181],[100.8305,12.9137],[100.8297,12.909],[100.83,12.8994],[100.8316,12.8949],[100.8319,12.8904],[100.8331,12.8891],[100.8359,12.8907],[100.837,12.8962],[100.84,12.9012],[100.8406,12.9109],[100.8431,12.9147],[100.8446,12.9204],[100.8469,12.9255],[100.8464,12.9321],[100.8481,12.9395],[100.8471,12.9414],[100.8426,12.9449],[100.842,12.9472],[100.8472,12.9672],[100.85,12.9742],[100.8494,12.9751],[100.8478,12.9752],[100.8448,12.9735],[100.8439,12.9716],[100.8443,12.9672],[100.8435,12.9624],[100.8416,12.9608],[100.8385,12.9607],[100.835,12.9673],[100.8377,12.9724],[100.8413,12.992],[100.8376,13.0015],[100.8356,13.0029]]}},{"type":"Feature","properties":{"d":-20},"geometry":{"type":"LineString","coordinates":[[100.7908,12.8961],[100.7892,12.8943],[100.7902,12.8926],[100.7917,12.894],[100.7908,12.8961]]}},{"type":"Feature","properties":{"d":-25},"geometry":{"type":"LineString","coordinates":[[100.4539,12.8684],[100.4492,12.8686],[100.4441,12.8674],[100.4252,12.8585],[100.4088,12.8547],[100.3974,12.8482],[100.393,12.8468],[100.3896,12.8472],[100.386,12.8489],[100.3744,12.8566],[100.3705,12.8603],[100.3665,12.8684],[100.3641,12.8809],[100.3649,12.9276],[100.3612,12.9552],[100.3603,12.9778],[100.3589,12.9875],[100.3544,13.0018],[100.3481,13.0145],[100.3453,13.0177],[100.3426,13.0195],[100.3398,13.0199],[100.3371,13.0189],[100.3342,13.0162],[100.3314,13.0114],[100.3253,12.9952],[100.3097,12.9325],[100.3052,12.9179],[100.276,12.8569],[100.272,12.8452],[100.271,12.8383],[100.2711,12.8315],[100.2753,12.8048],[100.2764,12.7766],[100.2793,12.7524]]}},{"type":"Feature","properties":{"d":-35},"geometry":{"type":"LineString","coordinates":[[100.813,12.5383],[100.812,12.5388],[100.8117,12.54],[100.8137,12.5413],[100.8147,12.5398],[100.813,12.5383]]}},{"type":"Feature","properties":{"d":-15},"geometry":{"type":"LineString","coordinates":[[101.0157,12.6061],[101.0068,12.5968],[100.9954,12.5967],[100.9928,12.5957],[100.99,12.5929],[100.9868,12.5935],[100.9843,12.5966],[100.9815,12.5985],[100.9795,12.5988],[100.9777,12.5981],[100.9765,12.5945],[100.979,12.59],[100.9766,12.5865],[100.9735,12.5768],[100.9687,12.573],[100.9662,12.5697],[100.966,12.5628],[100.9646,12.5581],[100.9555,12.5489],[100.9529,12.5484],[100.948,12.5499],[100.9407,12.5536],[100.934,12.5582],[100.933,12.5605],[100.9325,12.5671],[100.9278,12.573],[100.9265,12.5729],[100.9245,12.5694],[100.9229,12.569],[100.9169,12.5756],[100.9114,12.5791],[100.9089,12.5837],[100.9088,12.5908],[100.9028,12.594],[100.9007,12.6007],[100.8879,12.6023],[100.8854,12.6046],[100.8799,12.6062],[100.875,12.6095],[100.873,12.6127],[100.8725,12.6169],[100.877,12.6229],[100.8805,12.6251],[100.8805,12.6275],[100.8786,12.6287],[100.8737,12.629],[100.8691,12.6266],[100.8667,12.6263],[100.8595,12.6314],[100.8573,12.6376],[100.8448,12.6524],[100.8442,12.6587],[100.8421,12.6664],[100.8371,12.6714],[100.8356,12.6744],[100.8356,12.685],[100.8346,12.6935],[100.8325,12.7031],[100.8297,12.7088],[100.8296,12.7163],[100.8269,12.728],[100.8275,12.7439],[100.8311,12.7553],[100.8413,12.768],[100.8472,12.7732],[100.8494,12.7836],[100.8488,12.7888],[100.8519,12.7944],[100.8526,12.7974],[100.8519,12.7991],[100.8504,12.7998],[100.8451,12.7978],[100.8438,12.7904],[100.8384,12.7863],[100.8373,12.7846],[100.8357,12.7766],[100.8351,12.7692],[100.833,12.7668],[100.831,12.7668],[100.8294,12.7698],[100.8299,12.7822],[100.8313,12.7872],[100.8344,12.7916],[100.8344,12.7982],[100.8354,12.8027],[100.8407,12.8118],[100.8428,12.8198],[100.8416,12.8214],[100.8385,12.8178],[100.837,12.8177],[100.836,12.8187],[100.8329,12.8264],[100.8322,12.8305],[100.8327,12.8323],[100.8352,12.8348],[100.8352,12.8373],[100.8328,12.8411],[100.8283,12.8424],[100.828,12.8475],[100.8294,12.8552],[100.8366,12.872],[100.8387,12.8811],[100.8388,12.8873],[100.8409,12.8949],[100.8458,12.9064],[100.8468,12.9116],[100.8501,12.9196],[100.8503,12.9248],[100.854,12.9293],[100.8529,12.9376],[100.8535,12.9434],[100.8598,12.9544],[100.8621,12.9646],[100.8604,12.9723],[100.8609,12.9782],[100.8585,12.9936],[100.8591,13.0009],[100.8579,13.0091],[100.8605,13.0176],[100.8577,13.0381],[100.8561,13.0374],[100.8532,13.0275],[100.8527,13.0206],[100.8533,13.0163],[100.8519,13.0142],[100.8486,13.0148],[100.8464,13.0173],[100.8468,13.0284],[100.8531,13.0478],[100.8585,13.0526],[100.8614,13.0632],[100.865,13.066],[100.8701,13.072],[100.8699,13.0733],[100.8672,13.076],[100.8664,13.0782],[100.8659,13.0939],[100.8686,13.1113],[100.8742,13.1268],[100.8793,13.1546],[100.8784,13.1607],[100.8749,13.1716],[100.8707,13.1776],[100.8694,13.1814],[100.8685,13.192],[100.8663,13.2004],[100.8648,13.217],[100.8633,13.2381],[100.8639,13.2471],[100.8625,13.25],[100.8602,13.2522],[100.8571,13.2536],[100.854,13.2536],[100.8492,13.2512],[100.8458,13.2476],[100.845,13.2396],[100.8387,13.2247],[100.8367,13.2122],[100.8365,13.199],[100.8334,13.1918],[100.8307,13.1875],[100.8297,13.1832],[100.8298,13.1786],[100.8338,13.1653],[100.8331,13.1642],[100.83,13.1643],[100.8288,13.1631],[100.828,13.1536],[100.8248,13.14],[100.8226,13.1367],[100.8211,13.1318],[100.8149,13.1235],[100.8124,13.1133],[100.8092,13.1109],[100.8058,13.107],[100.8035,13.1069],[100.8019,13.1081],[100.8013,13.1153],[100.8037,13.1203],[100.8047,13.1255],[100.8017,13.132],[100.8011,13.1441],[100.7978,13.1468],[100.7968,13.1488],[100.798,13.1557],[100.7962,13.1605],[100.7958,13.1687],[100.7976,13.1732],[100.7976,13.1786],[100.8026,13.183],[100.8034,13.186],[100.8056,13.189],[100.8073,13.1952],[100.8119,13.2019],[100.8133,13.2094],[100.8128,13.2112],[100.8118,13.2115],[100.8106,13.2089],[100.8092,13.2079],[100.8072,13.2082],[100.8065,13.2098],[100.8098,13.2165],[100.813,13.2273],[100.813,13.242],[100.814,13.2442],[100.8176,13.2478],[100.8184,13.2555],[100.824,13.2621],[100.8314,13.2791],[100.8371,13.302],[100.8364,13.3194]]}},{"type":"Feature","properties":{"d":-40},"geometry":{"type":"LineString","coordinates":[[100.8837,12.5135],[100.8828,12.5123],[100.8846,12.5114],[100.885,12.5126],[100.8837,12.5135]]}},{"type":"Feature","properties":{"d":-40},"geometry":{"type":"LineString","coordinates":[[100.8403,12.5185],[100.8375,12.5172],[100.8351,12.5139],[100.8375,12.5109],[100.8402,12.5096],[100.8424,12.5106],[100.8436,12.5132],[100.8426,12.5172],[100.8403,12.5185]]}},{"type":"Feature","properties":{"d":-40},"geometry":{"type":"LineString","coordinates":[[100.9144,12.5213],[100.912,12.5225],[100.9118,12.5244],[100.9138,12.5246],[100.9154,12.5237],[100.9157,12.522],[100.9144,12.5213]]}},{"type":"Feature","properties":{"d":-50},"geometry":{"type":"LineString","coordinates":[[100.7752,12.6651],[100.7738,12.6646],[100.7737,12.6633],[100.7753,12.6616],[100.777,12.6613],[100.7776,12.6635],[100.7752,12.6651]]}},{"type":"Feature","properties":{"d":-50},"geometry":{"type":"LineString","coordinates":[[100.7569,12.6842],[100.7548,12.6833],[100.7548,12.6815],[100.7571,12.6798],[100.76,12.6802],[100.7607,12.6815],[100.7603,12.6829],[100.7569,12.6842]]}},{"type":"Feature","properties":{"d":-50},"geometry":{"type":"LineString","coordinates":[[100.9467,12.4993],[100.9449,12.503],[100.942,12.5051],[100.9324,12.5071],[100.9262,12.5067],[100.9209,12.5077],[100.9195,12.5092],[100.9181,12.5142],[100.9154,12.5164],[100.9052,12.5186],[100.8969,12.5169],[100.8985,12.5128],[100.9007,12.5098],[100.9076,12.505],[100.9086,12.4996]]}},{"type":"Feature","properties":{"d":-50},"geometry":{"type":"LineString","coordinates":[[100.9312,12.5314],[100.9275,12.5308],[100.9239,12.5289],[100.9218,12.5266],[100.9222,12.5244],[100.9238,12.5234],[100.9299,12.5227],[100.9355,12.524],[100.9371,12.5265],[100.9369,12.529],[100.9347,12.5307],[100.9312,12.5314]]}},{"type":"Feature","properties":{"d":-5},"geometry":{"type":"LineString","coordinates":[[101.7786,12.6763],[101.7709,12.683],[101.7606,12.6876],[101.754,12.6885],[101.7469,12.6884],[101.7404,12.6855],[101.7391,12.6833],[101.7364,12.6705],[101.7342,12.6635],[101.7287,12.6534],[101.7259,12.6506],[101.7267,12.6483],[101.7261,12.6463],[101.7216,12.6436],[101.7152,12.6381],[101.7153,12.6367],[101.7176,12.6354],[101.7171,12.6338],[101.7108,12.6322],[101.7077,12.6287],[101.7029,12.626],[101.6999,12.6188],[101.699,12.6141],[101.6949,12.6062],[101.6958,12.6025],[101.6949,12.5978],[101.6937,12.5954],[101.692,12.5947],[101.6894,12.5958],[101.6883,12.5984],[101.689,12.6014],[101.6918,12.6057],[101.6879,12.6066],[101.6846,12.6119],[101.6851,12.621],[101.6892,12.6325],[101.6844,12.6474],[101.6857,12.6501],[101.6896,12.6531],[101.6909,12.6562],[101.6899,12.662],[101.6884,12.6644],[101.6863,12.6652],[101.6837,12.6647],[101.6814,12.6632],[101.6721,12.6511],[101.6694,12.6501],[101.6609,12.6496],[101.6573,12.6442],[101.6511,12.6389],[101.6479,12.6375],[101.6316,12.6368],[101.6303,12.6379],[101.6297,12.6419],[101.6278,12.6435],[101.6219,12.6458],[101.6081,12.6491],[101.6026,12.6496],[101.5994,12.6476],[101.5964,12.6487],[101.5917,12.6482],[101.5862,12.6491],[101.58,12.6476],[101.5761,12.6453],[101.5729,12.6413],[101.5708,12.6347],[101.5685,12.6308],[101.5568,12.6226],[101.5538,12.623],[101.5518,12.6256],[101.55,12.6264],[101.5305,12.6274],[101.5236,12.6247],[101.5104,12.6161],[101.5073,12.6186],[101.5033,12.6195],[101.5044,12.6225],[101.503,12.6239],[101.4968,12.6235],[101.4935,12.6243],[101.4904,12.6265],[101.4796,12.6244],[101.4755,12.6251],[101.4715,12.6241],[101.467,12.6243],[101.4542,12.6177],[101.4484,12.6166],[101.4436,12.6132],[101.4409,12.6078],[101.4344,12.6011],[101.4308,12.5959],[101.428,12.5876],[101.4258,12.5857],[101.422,12.5846],[101.418,12.5821],[101.4137,12.584],[101.4124,12.5862],[101.4114,12.5908],[101.407,12.5933],[101.4019,12.5987],[101.3939,12.6035],[101.3891,12.6046],[101.3804,12.6084],[101.3749,12.6137],[101.3697,12.6147],[101.354,12.6209],[101.3476,12.6269],[101.3433,12.6271],[101.3391,12.6294],[101.3343,12.6304],[101.3296,12.6343],[101.3244,12.6355],[101.32,12.6389],[101.3026,12.6428],[101.2928,12.6461],[101.2835,12.6517],[101.2819,12.6516],[101.2804,12.6491],[101.2786,12.6485],[101.2736,12.654],[101.2693,12.6541],[101.2647,12.6558],[101.2513,12.6569],[101.2466,12.6591],[101.2414,12.6594],[101.2372,12.6621],[101.2332,12.6611],[101.2282,12.6621],[101.2233,12.6614],[101.2188,12.663],[101.2144,12.661],[101.2011,12.6596],[101.192,12.6554],[101.182,12.6559],[101.1797,12.6541],[101.1805,12.6485],[101.179,12.6451],[101.1668,12.6392],[101.1603,12.6381],[101.1584,12.6386],[101.1569,12.6401],[101.156,12.6477],[101.1547,12.65],[101.152,12.6502],[101.1489,12.6457],[101.1469,12.6453],[101.144,12.6491],[101.1398,12.6503],[101.1359,12.654],[101.1296,12.6566],[101.1247,12.6622],[101.1244,12.6654],[101.1234,12.6661],[101.1191,12.6671],[101.1163,12.6668],[101.1118,12.6625],[101.1072,12.6596],[101.095,12.6561],[101.0922,12.657],[101.0878,12.6615],[101.0817,12.6641],[101.0761,12.6598],[101.063,12.66],[101.0579,12.6578],[101.0533,12.6576],[101.0495,12.656],[101.0452,12.6554],[101.0358,12.6511],[101.0245,12.6484],[101.0183,12.6458],[101.0089,12.6433],[101.0003,12.6389]]}},{"type":"Feature","properties":{"d":-5},"geometry":{"type":"LineString","coordinates":[[101.0003,12.6389],[100.9797,12.6318],[100.9762,12.6289],[100.9718,12.6236],[100.9712,12.617],[100.9684,12.6102],[100.9665,12.6006],[100.9659,12.5937],[100.9679,12.5869],[100.9675,12.5822],[100.9651,12.579],[100.9601,12.5783],[100.9594,12.5775],[100.9598,12.5691],[100.9626,12.5632],[100.9626,12.5605],[100.9613,12.5583],[100.9561,12.5535],[100.9521,12.5514],[100.9491,12.5526],[100.9466,12.5571],[100.9447,12.5656],[100.9446,12.5713],[100.942,12.578],[100.9415,12.5815],[100.9436,12.591],[100.9457,12.5916],[100.9497,12.5896],[100.9516,12.5895],[100.9544,12.5914],[100.9545,12.594],[100.9512,12.5972],[100.9457,12.597],[100.942,12.602],[100.9339,12.6067],[100.9325,12.6063],[100.9287,12.603],[100.9233,12.6031],[100.9203,12.5991],[100.9174,12.6],[100.9153,12.604],[100.9159,12.6108],[100.9152,12.6181],[100.9131,12.6235],[100.9138,12.6279]]}},{"type":"Feature","properties":{"d":-5},"geometry":{"type":"LineString","coordinates":[[100.702,12.8007],[100.7009,12.8014],[100.7002,12.8034],[100.7009,12.8081],[100.7036,12.8113],[100.7068,12.8117],[100.7079,12.8102],[100.7075,12.8078],[100.7039,12.8022],[100.702,12.8007]]}},{"type":"Feature","properties":{"d":-40},"geometry":{"type":"LineString","coordinates":[[100.7529,12.9032],[100.752,12.9026],[100.7522,12.9012],[100.7554,12.8974],[100.757,12.8942],[100.7558,12.9008],[100.7529,12.9032]]}},{"type":"Feature","properties":{"d":0},"geometry":{"type":"LineString","coordinates":[[100.9517,12.5673],[100.9531,12.5634],[100.9525,12.5616],[100.9514,12.5609],[100.9506,12.5615],[100.95,12.5652],[100.9476,12.5683],[100.9468,12.572],[100.9434,12.5785],[100.9436,12.5816],[100.9467,12.5838]]}},{"type":"Feature","properties":{"d":0},"geometry":{"type":"LineString","coordinates":[[100.9575,12.5137],[100.9568,12.5129],[100.9559,12.5137]]}},{"type":"Feature","properties":{"d":-10},"geometry":{"type":"LineString","coordinates":[[101.7641,12.6393],[101.7576,12.6394],[101.7495,12.6344],[101.7416,12.6234],[101.7199,12.6017],[101.7133,12.5969],[101.7116,12.5938],[101.71,12.5854],[101.7074,12.5785],[101.7057,12.5687],[101.704,12.565],[101.7022,12.5635],[101.6987,12.5644],[101.6964,12.5678],[101.6965,12.5711],[101.6985,12.5751],[101.6969,12.5791],[101.6985,12.5853],[101.6982,12.5884],[101.6969,12.5895],[101.6922,12.5904],[101.6898,12.5922],[101.6867,12.5966],[101.6809,12.6096],[101.678,12.6131],[101.6712,12.6179],[101.649,12.6261],[101.6215,12.628],[101.6071,12.6276],[101.6014,12.626],[101.5917,12.6218],[101.5818,12.6222],[101.5698,12.6199],[101.5503,12.6099],[101.5336,12.6033],[101.53,12.6007],[101.526,12.594],[101.5187,12.5894],[101.5161,12.5816],[101.512,12.578],[101.5092,12.578],[101.5019,12.583],[101.4999,12.5834],[101.4929,12.5828],[101.483,12.5788],[101.4766,12.5722],[101.4717,12.5645],[101.4645,12.5579],[101.4621,12.5535],[101.457,12.5488],[101.4542,12.5431],[101.4487,12.5243],[101.4462,12.5214],[101.444,12.5206],[101.4414,12.5219],[101.4394,12.5265],[101.4399,12.5451],[101.4388,12.5595],[101.4373,12.5625],[101.431,12.5683],[101.43,12.5685],[101.428,12.5664],[101.4261,12.5659],[101.4176,12.5692],[101.4155,12.5712],[101.4151,12.574],[101.4118,12.576],[101.4129,12.578],[101.4125,12.579],[101.4099,12.5799],[101.4082,12.5816],[101.4064,12.5797],[101.4051,12.5799],[101.4038,12.5816],[101.4043,12.5846],[101.4032,12.5864],[101.3939,12.5901],[101.3925,12.5929],[101.3841,12.5936],[101.3805,12.5998],[101.3749,12.6043],[101.3702,12.6054],[101.363,12.6089],[101.3448,12.6145],[101.3289,12.6258],[101.3223,12.6288],[101.319,12.6319],[101.3139,12.6335],[101.3058,12.6383],[101.2821,12.6417],[101.2766,12.6437],[101.2726,12.6487],[101.2689,12.649],[101.2651,12.6506],[101.2518,12.6469],[101.2442,12.6412],[101.2366,12.6398],[101.2306,12.6372],[101.2193,12.6359],[101.2004,12.6373],[101.193,12.6396],[101.1877,12.6362],[101.1842,12.6351],[101.1726,12.634],[101.1647,12.6357],[101.1599,12.6357],[101.1577,12.6366],[101.156,12.6387],[101.1541,12.6444],[101.1543,12.6469],[101.1534,12.6477],[101.1514,12.6437],[101.1446,12.6387],[101.1193,12.642],[101.0992,12.6402],[101.0863,12.6408],[101.0702,12.6398],[101.0357,12.6332],[101.0252,12.6302],[101.0169,12.625],[101.0081,12.6224]]}},{"type":"Feature","properties":{"d":-40},"geometry":{"type":"LineString","coordinates":[[100.7583,12.6733],[100.7576,12.6737],[100.7579,12.6746],[100.7596,12.6748],[100.7595,12.6738],[100.7583,12.6733]]}},{"type":"Feature","properties":{"d":-40},"geometry":{"type":"LineString","coordinates":[[100.923,12.5556],[100.921,12.5551],[100.9196,12.5536],[100.9192,12.5491],[100.9214,12.5459],[100.9255,12.5454],[100.9283,12.547],[100.9288,12.5492],[100.9262,12.554],[100.923,12.5556]]}},{"type":"Feature","properties":{"d":-40},"geometry":{"type":"LineString","coordinates":[[100.7566,12.71],[100.7566,12.71]]}},{"type":"Feature","properties":{"d":-40},"geometry":{"type":"LineString","coordinates":[[100.7452,12.5895],[100.748,12.5873],[100.7507,12.5796],[100.7568,12.577],[100.7586,12.5755],[100.7638,12.5658],[100.7656,12.5606],[100.7706,12.5573],[100.7742,12.5504],[100.7788,12.5471],[100.7828,12.5424],[100.7948,12.5366],[100.7979,12.5378],[100.8023,12.542],[100.8029,12.5433],[100.8025,12.5462],[100.8045,12.5497],[100.8041,12.5515],[100.8028,12.5519],[100.7958,12.5498],[100.7938,12.5504],[100.7927,12.5521],[100.7931,12.5543],[100.7976,12.5593],[100.7963,12.5634],[100.7908,12.5679],[100.7798,12.5802],[100.7726,12.5843],[100.7676,12.5888],[100.7622,12.5966],[100.7553,12.6025],[100.7503,12.6085],[100.7494,12.6172],[100.7498,12.6212],[100.751,12.6236],[100.754,12.6257],[100.7588,12.6253],[100.763,12.6272],[100.7685,12.6284],[100.7708,12.6305],[100.7707,12.6351],[100.7691,12.6382],[100.7699,12.6413],[100.7655,12.6465],[100.7637,12.652],[100.7637,12.6566],[100.7649,12.6609],[100.7664,12.6619],[100.7686,12.6616],[100.7743,12.6562],[100.7791,12.6543],[100.7837,12.6541],[100.7864,12.6548],[100.7886,12.6564],[100.7893,12.6588],[100.7882,12.6613],[100.7822,12.6615],[100.7777,12.6662],[100.7715,12.6698],[100.7659,12.6778],[100.7589,12.6956],[100.7565,12.6963],[100.7501,12.6944]]}},{"type":"Feature","properties":{"d":-40},"geometry":{"type":"LineString","coordinates":[[100.9506,12.54],[100.949,12.5395],[100.9488,12.5384],[100.9515,12.5385],[100.9517,12.5395],[100.9506,12.54]]}},{"type":"Feature","properties":{"d":-40},"geometry":{"type":"LineString","coordinates":[[100.9526,12.4993],[100.9514,12.5015],[100.9476,12.5047],[100.9397,12.5084],[100.9335,12.5124],[100.9274,12.5126],[100.9242,12.5116],[100.9226,12.5129],[100.9205,12.5183],[100.9207,12.5197],[100.9231,12.5204],[100.9287,12.5199],[100.9361,12.5221],[100.9387,12.5254],[100.9392,12.5305],[100.9239,12.534],[100.9157,12.5308],[100.9121,12.5306],[100.9059,12.5335],[100.9008,12.5343],[100.8959,12.5374],[100.8937,12.5361],[100.8936,12.5336],[100.8977,12.5308],[100.9007,12.5265],[100.8924,12.5231],[100.8904,12.5196],[100.8906,12.5159],[100.8939,12.511],[100.8922,12.5076],[100.8931,12.5046],[100.8931,12.4997]]}},{"type":"Feature","properties":{"d":-40},"geometry":{"type":"LineString","coordinates":[[100.8682,12.5498],[100.8671,12.5481],[100.8687,12.5465],[100.8696,12.5482],[100.8682,12.5498]]}},{"type":"Feature","properties":{"d":-40},"geometry":{"type":"LineString","coordinates":[[100.9612,12.5419],[100.9594,12.5411],[100.9599,12.5394],[100.9623,12.5383],[100.9644,12.539],[100.964,12.5408],[100.9612,12.5419]]}},{"type":"Feature","properties":{"d":-40},"geometry":{"type":"LineString","coordinates":[[100.9427,12.5342],[100.9409,12.5329],[100.9405,12.5308],[100.9427,12.5308],[100.9442,12.5318],[100.9442,12.5332],[100.9427,12.5342]]}},{"type":"Feature","properties":{"d":-40},"geometry":{"type":"LineString","coordinates":[[100.9045,12.5253],[100.902,12.5263],[100.9038,12.5269],[100.9057,12.5263],[100.9055,12.5255],[100.9045,12.5253]]}},{"type":"Feature","properties":{"d":-25},"geometry":{"type":"LineString","coordinates":[[100.8159,12.7496],[100.8134,12.7488],[100.8118,12.747],[100.81,12.7275],[100.8065,12.723],[100.8125,12.7118],[100.8155,12.709],[100.819,12.7081],[100.8222,12.7095],[100.8237,12.7126],[100.8216,12.7229],[100.8223,12.7362],[100.8194,12.7471],[100.818,12.749],[100.8159,12.7496]]}},{"type":"Feature","properties":{"d":-25},"geometry":{"type":"LineString","coordinates":[[101.0224,12.4988],[101.0207,12.501],[101.0174,12.5031],[101.0067,12.5047],[101.0024,12.5033],[101.0019,12.4989]]}},{"type":"Feature","properties":{"d":-25},"geometry":{"type":"LineString","coordinates":[[100.7583,12.8117],[100.7558,12.8132],[100.753,12.8177],[100.7505,12.831],[100.7528,12.8526],[100.7518,12.8561],[100.7523,12.8576],[100.7532,12.8566],[100.7536,12.8524],[100.7609,12.8434],[100.762,12.8401],[100.7619,12.8185],[100.7602,12.8132],[100.7583,12.8117]]}},{"type":"Feature","properties":{"d":-25},"geometry":{"type":"LineString","coordinates":[[100.8027,12.7765],[100.8008,12.7738],[100.7984,12.7621],[100.7978,12.7553],[100.7986,12.7504],[100.8006,12.7521],[100.8021,12.755],[100.8059,12.7684],[100.8058,12.7737],[100.8027,12.7765]]}},{"type":"Feature","properties":{"d":-25},"geometry":{"type":"LineString","coordinates":[[100.8419,12.933],[100.8406,12.9315],[100.8402,12.9269],[100.8379,12.9213],[100.8372,12.9156],[100.8333,12.912],[100.8346,12.9021],[100.8356,12.903],[100.8357,12.9068],[100.8381,12.9137],[100.8409,12.9166],[100.8419,12.9189],[100.8421,12.9242],[100.8438,12.929],[100.8433,12.9318],[100.8419,12.933]]}},{"type":"Feature","properties":{"d":-25},"geometry":{"type":"LineString","coordinates":[[100.8339,12.9859],[100.8323,12.9851],[100.8309,12.9826],[100.8223,12.9554],[100.8183,12.9483],[100.8183,12.9408],[100.8206,12.9274],[100.8229,12.9304],[100.8298,12.962],[100.8302,12.9701],[100.8329,12.9738],[100.8357,12.9799],[100.8356,12.9844],[100.8339,12.9859]]}},{"type":"Feature","properties":{"d":-25},"geometry":{"type":"LineString","coordinates":[[100.6103,12.9453],[100.6093,12.9473],[100.6102,12.9497],[100.6109,12.9475],[100.6103,12.9453]]}},{"type":"Feature","properties":{"d":-15},"geometry":{"type":"LineString","coordinates":[[100.7951,12.7945],[100.7925,12.7962],[100.7926,12.7974],[100.7939,12.7984],[100.796,12.7984],[100.7973,12.7973],[100.7969,12.7955],[100.7951,12.7945]]}},{"type":"Feature","properties":{"d":-55},"geometry":{"type":"LineString","coordinates":[[100.9434,12.4993],[100.943,12.5027],[100.9403,12.5041],[100.9328,12.5036],[100.9305,12.5013],[100.9298,12.4994]]}},{"type":"Feature","properties":{"d":-55},"geometry":{"type":"LineString","coordinates":[[100.9253,12.4995],[100.9249,12.5018],[100.9231,12.5026],[100.9214,12.5017],[100.9216,12.4995]]}},{"type":"Feature","properties":{"d":-55},"geometry":{"type":"LineString","coordinates":[[100.9318,12.5308],[100.9267,12.5288],[100.9255,12.5271],[100.9258,12.5257],[100.9305,12.5236],[100.935,12.5247],[100.9362,12.5266],[100.936,12.5287],[100.9344,12.5302],[100.9318,12.5308]]}},{"type":"Feature","properties":{"d":-55},"geometry":{"type":"LineString","coordinates":[[100.9178,12.4995],[100.9193,12.5017],[100.9158,12.5068],[100.9163,12.5114],[100.9155,12.5135],[100.913,12.5149],[100.9058,12.5162],[100.9041,12.5158],[100.9032,12.5144],[100.9037,12.5126],[100.9124,12.5067],[100.9163,12.4995]]}},{"type":"Feature","properties":{"d":-15},"geometry":{"type":"LineString","coordinates":[[100.8063,12.9209],[100.8028,12.9235],[100.8021,12.9274],[100.8036,12.932],[100.8073,12.9375],[100.8094,12.9429],[100.8105,12.9401],[100.8101,12.9341],[100.8117,12.9263],[100.81,12.923],[100.8063,12.9209]]}},{"type":"Feature","properties":{"d":-30},"geometry":{"type":"LineString","coordinates":[[100.7491,12.5563],[100.7514,12.5559],[100.7593,12.5516],[100.7623,12.5491],[100.7651,12.5405],[100.7702,12.5359],[100.7719,12.5332],[100.7739,12.527],[100.7742,12.5226],[100.78,12.5184],[100.7832,12.5101],[100.7893,12.5067],[100.7963,12.5049],[100.7987,12.5027],[100.7993,12.5004]]}},{"type":"Feature","properties":{"d":-30},"geometry":{"type":"LineString","coordinates":[[100.8252,12.6127],[100.8203,12.6141],[100.8164,12.6184],[100.812,12.6214],[100.8081,12.6265],[100.8033,12.6295],[100.8018,12.6325],[100.8024,12.6352],[100.8053,12.6363],[100.8125,12.635],[100.8222,12.6307],[100.8248,12.6288],[100.8269,12.6254],[100.8296,12.6165],[100.8288,12.6136],[100.8252,12.6127]]}},{"type":"Feature","properties":{"d":-30},"geometry":{"type":"LineString","coordinates":[[100.8152,12.7408],[100.8139,12.7398],[100.8133,12.7375],[100.8133,12.7275],[100.8095,12.7244],[100.809,12.7227],[100.8123,12.7142],[100.8154,12.7103],[100.8178,12.7094],[100.8201,12.7107],[100.8207,12.7135],[100.8178,12.7369],[100.8167,12.7398],[100.8152,12.7408]]}},{"type":"Feature","properties":{"d":-30},"geometry":{"type":"LineString","coordinates":[[100.9609,12.4992],[100.9597,12.5014],[100.9536,12.5037],[100.9497,12.508],[100.9396,12.5163],[100.9388,12.5192],[100.9411,12.5233],[100.9418,12.5268],[100.9469,12.5298],[100.9498,12.5345],[100.9562,12.5379],[100.9636,12.5357],[100.9692,12.5351],[100.9793,12.5354],[100.9837,12.5363],[100.9861,12.5375],[100.9866,12.5386],[100.9839,12.543],[100.9801,12.5444],[100.9752,12.5427],[100.9722,12.5426],[100.9613,12.5458],[100.9546,12.5446],[100.9443,12.5444],[100.9421,12.5427],[100.9415,12.5372],[100.9402,12.5346],[100.9383,12.533],[100.9357,12.5331],[100.9322,12.5347],[100.9303,12.538],[100.9319,12.5428],[100.9356,12.5467],[100.9356,12.549],[100.9262,12.5575],[100.9205,12.5589],[100.9151,12.5588],[100.9136,12.5576],[100.914,12.5509],[100.9179,12.5422],[100.9172,12.5403],[100.9148,12.5385],[100.9123,12.539],[100.9047,12.5451],[100.8957,12.544],[100.8882,12.5463],[100.8876,12.5474],[100.8895,12.5497],[100.8904,12.5529],[100.889,12.5583],[100.8846,12.5612],[100.8815,12.5654],[100.878,12.5681],[100.872,12.5761],[100.8657,12.5799],[100.8614,12.5871],[100.8561,12.5917],[100.8535,12.5992],[100.8495,12.6],[100.8475,12.6022],[100.8476,12.6041],[100.8495,12.6051],[100.8564,12.6051],[100.8642,12.6035],[100.8693,12.6045],[100.8711,12.606],[100.8714,12.608],[100.8701,12.61],[100.8629,12.6112],[100.8577,12.6156],[100.8574,12.6174],[100.8585,12.6205],[100.8619,12.6235],[100.8612,12.626],[100.8568,12.6274],[100.8498,12.6275],[100.8469,12.629],[100.8392,12.6373],[100.8356,12.6478],[100.8341,12.6497],[100.8271,12.651],[100.8108,12.6516],[100.8055,12.6559],[100.8004,12.6582],[100.7951,12.6621],[100.7895,12.6638],[100.7821,12.6641],[100.7722,12.6722],[100.7688,12.6822],[100.7653,12.6876],[100.7626,12.6962],[100.7567,12.7008],[100.7557,12.7024],[100.7562,12.7041],[100.7595,12.707],[100.7606,12.7129],[100.7644,12.7196],[100.7636,12.7285],[100.7666,12.748],[100.7637,12.7709],[100.761,12.7784],[100.7569,12.7853],[100.7534,12.7936],[100.7473,12.7978],[100.7443,12.8019],[100.7421,12.803],[100.7307,12.8028],[100.7265,12.8015],[100.7227,12.799],[100.7148,12.7918],[100.7107,12.7825],[100.7111,12.7716],[100.7096,12.7646],[100.7072,12.7602],[100.7002,12.7527],[100.6988,12.75]]}},{"type":"Feature","properties":{"d":-30},"geometry":{"type":"LineString","coordinates":[[100.7699,12.8369],[100.7686,12.8319],[100.7694,12.8289],[100.7706,12.8317],[100.7699,12.8369]]}},{"type":"Feature","properties":{"d":-30},"geometry":{"type":"LineString","coordinates":[[100.5873,12.8436],[100.5857,12.8431],[100.5843,12.8414],[100.5835,12.8361],[100.5856,12.831],[100.5876,12.8293],[100.5892,12.829],[100.5907,12.8297],[100.5919,12.8315],[100.5923,12.8369],[100.5905,12.8417],[100.5873,12.8436]]}},{"type":"Feature","properties":{"d":-30},"geometry":{"type":"LineString","coordinates":[[100.7223,12.8646],[100.7198,12.8631],[100.7184,12.8587],[100.7171,12.8458],[100.7183,12.8403],[100.7216,12.837],[100.727,12.8353],[100.7332,12.835],[100.7384,12.8366],[100.7409,12.8393],[100.74,12.8429],[100.7346,12.8509],[100.725,12.863],[100.7223,12.8646]]}},{"type":"Feature","properties":{"d":-30},"geometry":{"type":"LineString","coordinates":[[100.8054,12.9798],[100.8042,12.9791],[100.8033,12.9772],[100.8014,12.967],[100.8014,12.964],[100.8025,12.9625],[100.804,12.9634],[100.8048,12.965],[100.8071,12.9752],[100.8069,12.9782],[100.8054,12.9798]]}},{"type":"Feature","properties":{"d":-30},"geometry":{"type":"LineString","coordinates":[[100.8221,12.9487],[100.8206,12.9465],[100.8218,12.944],[100.8229,12.9465],[100.8221,12.9487]]}},{"type":"Feature","properties":{"d":-30},"geometry":{"type":"LineString","coordinates":[[100.63,12.9922],[100.626,12.9912],[100.6224,12.9883],[100.62,12.9844],[100.6192,12.9799],[100.6199,12.976],[100.6227,12.9715],[100.6261,12.9685],[100.6296,12.9674],[100.6324,12.968],[100.6354,12.97],[100.6377,12.9728],[100.6384,12.9753],[100.6379,12.9835],[100.6368,12.9872],[100.6337,12.991],[100.63,12.9922]]}},{"type":"Feature","properties":{"d":-15},"geometry":{"type":"LineString","coordinates":[[101.0262,12.5837],[101.0316,12.5866],[101.0383,12.5883],[101.0571,12.5871],[101.0678,12.5846],[101.078,12.5788],[101.0805,12.5753],[101.0779,12.5645],[101.0758,12.5626],[101.0723,12.5616],[101.0701,12.5618],[101.0685,12.5629],[101.0663,12.5692],[101.064,12.5725],[101.0568,12.5759],[101.0502,12.5755],[101.0433,12.5709],[101.0326,12.5699]]}},{"type":"Feature","properties":{"d":-15},"geometry":{"type":"LineString","coordinates":[[101.7322,12.5578],[101.7186,12.5584],[101.7072,12.5606],[101.7028,12.5589],[101.7005,12.5591],[101.6962,12.564],[101.691,12.5663],[101.6871,12.5709],[101.6775,12.5779],[101.6704,12.5823],[101.6607,12.5862],[101.6408,12.5878],[101.6245,12.5855],[101.6149,12.5829],[101.6114,12.5811],[101.6074,12.5774],[101.5881,12.5694],[101.5841,12.5649],[101.5759,12.5516],[101.5721,12.5485],[101.5694,12.5483],[101.566,12.5493],[101.5589,12.5554],[101.522,12.5521],[101.5193,12.5504],[101.5095,12.5408],[101.5031,12.5334],[101.493,12.5264],[101.4777,12.5178],[101.4745,12.5169],[101.4679,12.5179],[101.4617,12.5213],[101.4508,12.5241],[101.4451,12.5191],[101.4453,12.5124],[101.4431,12.5101],[101.4411,12.5113],[101.44,12.5132],[101.4401,12.5168],[101.4419,12.5195],[101.4393,12.5225],[101.4307,12.5291],[101.425,12.5293],[101.4199,12.5276],[101.4182,12.5283],[101.4143,12.5333],[101.4128,12.5401],[101.4113,12.5431],[101.4033,12.5507],[101.3966,12.5547],[101.3877,12.5584],[101.3747,12.5616],[101.3659,12.5666],[101.3563,12.5661],[101.3519,12.5692],[101.3371,12.5736],[101.3312,12.5766],[101.322,12.5797],[101.3129,12.5813],[101.3068,12.5836],[101.2961,12.582],[101.2912,12.5846],[101.2873,12.5913],[101.287,12.594],[101.2919,12.6085],[101.2954,12.6112],[101.2967,12.6177],[101.3009,12.6278],[101.3022,12.6291],[101.3058,12.6302],[101.3069,12.6316],[101.3063,12.6338],[101.3028,12.6357],[101.2994,12.6354],[101.2972,12.6335],[101.2926,12.6232],[101.2892,12.6203],[101.2828,12.6042],[101.2795,12.6015],[101.2781,12.5954],[101.2754,12.5914],[101.2729,12.5903],[101.2433,12.5905],[101.2416,12.5919],[101.2418,12.5933],[101.2436,12.5949],[101.2481,12.5969],[101.2487,12.5978],[101.2479,12.5986],[101.2339,12.6025],[101.2264,12.607],[101.2202,12.6122],[101.2027,12.6186],[101.1934,12.6231],[101.1631,12.6276],[101.1569,12.6335],[101.153,12.6395],[101.1468,12.6317],[101.1444,12.6303],[101.1359,12.6303],[101.1178,12.6338],[101.1086,12.6336],[101.0905,12.6269],[101.053,12.623],[101.0316,12.6189],[101.0257,12.6158],[101.0189,12.6084],[101.0157,12.6061]]}},{"type":"Feature","properties":{"d":-25},"geometry":{"type":"LineString","coordinates":[[100.8015,12.9407],[100.7997,12.9387],[100.8002,12.9365],[100.8021,12.9384],[100.8015,12.9407]]}},{"type":"Feature","properties":{"d":-45},"geometry":{"type":"LineString","coordinates":[[100.9233,12.5538],[100.9214,12.5526],[100.9209,12.5499],[100.922,12.5474],[100.9242,12.5467],[100.926,12.5478],[100.9264,12.5499],[100.9252,12.5527],[100.9233,12.5538]]}},{"type":"Feature","properties":{"d":-45},"geometry":{"type":"LineString","coordinates":[[100.7453,12.5947],[100.7493,12.5927],[100.7517,12.5865],[100.7536,12.5837],[100.7625,12.5773],[100.7658,12.5706],[100.7693,12.5666],[100.771,12.5606],[100.7757,12.5546],[100.7774,12.5537],[100.7794,12.5545],[100.7806,12.5563],[100.7817,12.5617],[100.781,12.5678],[100.7797,12.5718],[100.7754,12.5775],[100.7709,12.5807],[100.7596,12.5929],[100.7508,12.5965],[100.7477,12.603],[100.7453,12.604]]}},{"type":"Feature","properties":{"d":-45},"geometry":{"type":"LineString","coordinates":[[100.7497,12.6425],[100.754,12.643],[100.7581,12.6422],[100.7599,12.643],[100.7607,12.6586],[100.7603,12.6605],[100.759,12.6615],[100.7499,12.6615]]}},{"type":"Feature","properties":{"d":-45},"geometry":{"type":"LineString","coordinates":[[100.7666,12.6728],[100.7649,12.6721],[100.7639,12.6704],[100.7651,12.6667],[100.7701,12.6636],[100.7751,12.659],[100.7772,12.6585],[100.779,12.6591],[100.7797,12.6615],[100.778,12.6649],[100.7756,12.6664],[100.771,12.6675],[100.7684,12.6718],[100.7666,12.6728]]}},{"type":"Feature","properties":{"d":-45},"geometry":{"type":"LineString","coordinates":[[100.75,12.6864],[100.75,12.6855]]}},{"type":"Feature","properties":{"d":-45},"geometry":{"type":"LineString","coordinates":[[100.75,12.6784],[100.7542,12.6773],[100.7599,12.6782],[100.7619,12.6792],[100.7627,12.6812],[100.762,12.6833],[100.7595,12.6861],[100.7591,12.6896],[100.7579,12.6916],[100.7501,12.6909]]}},{"type":"Feature","properties":{"d":-45},"geometry":{"type":"LineString","coordinates":[[100.7492,12.7267],[100.7485,12.729],[100.7453,12.7296]]}},{"type":"Feature","properties":{"d":-45},"geometry":{"type":"LineString","coordinates":[[100.9496,12.4993],[100.9477,12.5025],[100.9431,12.5059],[100.9328,12.509],[100.9225,12.5092],[100.9212,12.5104],[100.9196,12.5151],[100.9179,12.5174],[100.9049,12.5215],[100.8951,12.5197],[100.8932,12.5178],[100.8935,12.5158],[100.8967,12.5118],[100.8983,12.5077],[100.9023,12.5038],[100.9017,12.4996]]}},{"type":"Feature","properties":{"d":-45},"geometry":{"type":"LineString","coordinates":[[100.9294,12.5321],[100.9239,12.5311],[100.9188,12.5284],[100.9179,12.5264],[100.9197,12.5232],[100.9221,12.522],[100.9287,12.5215],[100.9338,12.5222],[100.9364,12.5236],[100.9381,12.5268],[100.9377,12.5296],[100.9345,12.5314],[100.9294,12.5321]]}},{"type":"Feature","properties":{"d":-25},"geometry":{"type":"LineString","coordinates":[[100.9716,12.4991],[100.9714,12.501],[100.9704,12.5018],[100.9641,12.5021],[100.9607,12.5044],[100.9569,12.5038],[100.9543,12.5048],[100.9518,12.5078],[100.9482,12.5167],[100.943,12.5192],[100.9477,12.5231],[100.9484,12.5277],[100.9511,12.5336],[100.9574,12.537],[100.9731,12.532],[100.9835,12.5317],[100.9894,12.5328],[101.0028,12.5378],[101.0055,12.5407],[101.0102,12.5438],[101.0109,12.5457],[101.0102,12.5475],[101.0064,12.5489],[100.9948,12.5467],[100.9843,12.5481],[100.9793,12.5473],[100.9726,12.5445],[100.9685,12.5452],[100.9619,12.5482],[100.9548,12.5461],[100.9435,12.5465],[100.9399,12.5441],[100.9409,12.5384],[100.9398,12.5351],[100.9375,12.5336],[100.9343,12.5344],[100.9324,12.5369],[100.9328,12.5404],[100.9346,12.543],[100.9388,12.5453],[100.9393,12.548],[100.937,12.5506],[100.9315,12.5539],[100.9268,12.5591],[100.9131,12.564],[100.909,12.5632],[100.9045,12.5592],[100.9005,12.5617],[100.8943,12.5633],[100.8921,12.5652],[100.8898,12.5696],[100.8885,12.5754],[100.8868,12.5789],[100.8874,12.5824],[100.8863,12.592],[100.8819,12.5953],[100.8715,12.6114],[100.8668,12.6131],[100.8653,12.6144],[100.865,12.617],[100.8677,12.6224],[100.8651,12.6236],[100.861,12.6276],[100.8513,12.6319],[100.8451,12.6379],[100.8427,12.6418],[100.8428,12.6486],[100.8409,12.6518],[100.8392,12.6526],[100.8254,12.6534],[100.8136,12.6531],[100.8069,12.6579],[100.8019,12.66],[100.7965,12.6635],[100.7906,12.6646],[100.7843,12.6643],[100.7822,12.6649],[100.7728,12.6729],[100.77,12.6826],[100.7668,12.6884],[100.7642,12.6961],[100.7582,12.7018],[100.7583,12.7035],[100.7604,12.7065],[100.7617,12.7125],[100.764,12.7161],[100.7677,12.7197],[100.7655,12.7238],[100.7652,12.7284],[100.7665,12.7366],[100.7699,12.7445],[100.7713,12.7502],[100.772,12.7657],[100.7735,12.7766],[100.7734,12.801],[100.7768,12.823],[100.7782,12.8398],[100.7791,12.843],[100.7846,12.8523],[100.7854,12.8552],[100.7835,12.8741],[100.7816,12.8813],[100.7795,12.8848],[100.7735,12.8903],[100.7687,12.8965],[100.7654,12.9045],[100.7607,12.9111],[100.76,12.9149],[100.761,12.9179],[100.7673,12.9277],[100.773,12.9332],[100.7762,12.9481],[100.7816,12.9659],[100.7833,12.9836],[100.7828,12.992],[100.7836,12.9968],[100.7883,13.0104],[100.7928,13.0151],[100.7989,13.0289],[100.7998,13.0378],[100.798,13.0485],[100.8012,13.0658],[100.7995,13.0682],[100.7942,13.0696],[100.7932,13.0748],[100.7942,13.0858],[100.796,13.0921],[100.797,13.1005],[100.8,13.1071],[100.7995,13.1109],[100.7971,13.1158],[100.7971,13.1196],[100.7943,13.1223],[100.7934,13.1246],[100.7934,13.1334],[100.7959,13.1449],[100.7942,13.1492],[100.7944,13.1553],[100.7933,13.1589],[100.7924,13.1679],[100.794,13.174],[100.7934,13.1884],[100.799,13.1926],[100.802,13.1916],[100.8027,13.1924],[100.802,13.1938],[100.7996,13.1953],[100.798,13.1988],[100.7939,13.2266],[100.7934,13.2336],[100.7962,13.2425],[100.7955,13.2455],[100.7927,13.2464],[100.7898,13.2442],[100.7839,13.2274],[100.7791,13.2218],[100.7763,13.2167],[100.7745,13.2155],[100.7673,13.2151],[100.7653,13.2167],[100.7645,13.2203],[100.7656,13.2279],[100.763,13.2337],[100.7628,13.2366]]}},{"type":"Feature","properties":{"d":-20},"geometry":{"type":"LineString","coordinates":[[100.8132,12.6777],[100.8118,12.6745],[100.8118,12.6683],[100.8128,12.6658],[100.8149,12.6651],[100.816,12.6656],[100.8164,12.6669],[100.8144,12.6759],[100.8132,12.6777]]}},{"type":"Feature","properties":{"d":-20},"geometry":{"type":"LineString","coordinates":[[100.9371,12.5343],[100.9344,12.5354],[100.9333,12.5378],[100.9344,12.5411],[100.9368,12.5423],[100.9391,12.5412],[100.9402,12.5382],[100.9394,12.5355],[100.9371,12.5343]]}},{"type":"Feature","properties":{"d":-20},"geometry":{"type":"LineString","coordinates":[[100.9719,12.546],[100.9678,12.5474],[100.9666,12.5505],[100.9713,12.5556],[100.9746,12.5563],[100.9795,12.5524],[100.98,12.551],[100.9752,12.547],[100.9719,12.546]]}},{"type":"Feature","properties":{"d":-35},"geometry":{"type":"LineString","coordinates":[[100.8147,12.7253],[100.8118,12.724],[100.8115,12.7212],[100.8128,12.7163],[100.8158,12.7142],[100.8173,12.7159],[100.8177,12.7191],[100.8169,12.7241],[100.8147,12.7253]]}},{"type":"Feature","properties":{"d":-35},"geometry":{"type":"LineString","coordinates":[[100.7502,12.7061],[100.757,12.7067],[100.759,12.7085],[100.759,12.714],[100.7622,12.7207],[100.7623,12.7464],[100.7553,12.7625],[100.7506,12.7683],[100.7458,12.7721],[100.7421,12.7786],[100.7398,12.7834],[100.7373,12.7922],[100.7348,12.7946],[100.7314,12.796],[100.7284,12.7962],[100.7256,12.7954],[100.7236,12.7936],[100.7224,12.791],[100.7213,12.7773],[100.7217,12.7656],[100.7202,12.7499]]}},{"type":"Feature","properties":{"d":-35},"geometry":{"type":"LineString","coordinates":[[100.8543,12.5819],[100.8533,12.5813],[100.8527,12.5766],[100.8494,12.5731],[100.8496,12.5718],[100.8533,12.5695],[100.8577,12.5646],[100.8654,12.5602],[100.8701,12.5594],[100.8736,12.5607],[100.874,12.5631],[100.8705,12.5683],[100.8574,12.5806],[100.8543,12.5819]]}},{"type":"Feature","properties":{"d":-35},"geometry":{"type":"LineString","coordinates":[[100.7688,12.6512],[100.7675,12.6517],[100.7667,12.6534],[100.7669,12.6555],[100.7679,12.6568],[100.7695,12.6558],[100.7704,12.6537],[100.7702,12.6519],[100.7688,12.6512]]}},{"type":"Feature","properties":{"d":-35},"geometry":{"type":"LineString","coordinates":[[100.9552,12.4993],[100.9497,12.5054],[100.9422,12.5097],[100.9376,12.5139],[100.9343,12.5188],[100.9387,12.5228],[100.9411,12.5286],[100.9461,12.5314],[100.9465,12.5345],[100.9473,12.5353],[100.9518,12.5367],[100.956,12.5393],[100.9634,12.5368],[100.9705,12.5381],[100.9702,12.5393],[100.9678,12.5412],[100.9624,12.5438],[100.9595,12.5439],[100.9548,12.5425],[100.9487,12.5427],[100.9447,12.5414],[100.9435,12.5402],[100.9419,12.5357],[100.9383,12.5321],[100.9323,12.5334],[100.9236,12.5376],[100.921,12.5371],[100.9158,12.534],[100.9137,12.5336],[100.8971,12.5405],[100.8931,12.5403],[100.8869,12.538],[100.8847,12.5382],[100.8833,12.5397],[100.8811,12.5451],[100.8751,12.5484],[100.8709,12.5542],[100.8687,12.5551],[100.8653,12.5549],[100.8589,12.5528],[100.858,12.551],[100.8595,12.5486],[100.8607,12.5444],[100.8638,12.54],[100.8659,12.5386],[100.8715,12.537],[100.8729,12.535],[100.8708,12.5328],[100.8591,12.5331],[100.8569,12.5309],[100.8562,12.5288],[100.8572,12.5256],[100.8566,12.5197],[100.8614,12.5165],[100.8611,12.5095],[100.8588,12.5085],[100.8562,12.5093],[100.8538,12.5171],[100.8389,12.5222],[100.8379,12.5244],[100.8382,12.5317],[100.8412,12.5356],[100.8377,12.5392],[100.8366,12.5472],[100.8348,12.5508],[100.8282,12.5542],[100.825,12.5597],[100.8224,12.5617],[100.8144,12.5648],[100.8065,12.5658],[100.8017,12.5686],[100.7948,12.5712],[100.7729,12.5923],[100.7717,12.5969],[100.7721,12.5986],[100.7795,12.6002],[100.7943,12.5994],[100.8017,12.5947],[100.8048,12.5942],[100.8141,12.6021],[100.8153,12.605],[100.812,12.6092],[100.8029,12.6152],[100.7968,12.6221],[100.7867,12.6306],[100.7825,12.6367],[100.78,12.642],[100.7761,12.6446],[100.7753,12.646],[100.7755,12.6475],[100.7767,12.6484],[100.7825,12.6469],[100.7891,12.647],[100.803,12.6499],[100.8038,12.6513],[100.8004,12.6533],[100.7903,12.6622],[100.7878,12.663],[100.7823,12.663],[100.7728,12.6701],[100.7699,12.6744],[100.7673,12.6816],[100.7641,12.6861],[100.7608,12.6963],[100.7582,12.6982],[100.7538,12.6992],[100.7518,12.7013],[100.7501,12.7018]]}},{"type":"Feature","properties":{"d":-35},"geometry":{"type":"LineString","coordinates":[[100.9225,12.5571],[100.919,12.5561],[100.9173,12.5538],[100.9173,12.5495],[100.9191,12.5456],[100.9215,12.5441],[100.9259,12.5437],[100.9321,12.5465],[100.9327,12.5486],[100.9273,12.5548],[100.925,12.5565],[100.9225,12.5571]]}},{"type":"Feature","properties":{"d":-35},"geometry":{"type":"LineString","coordinates":[[100.7452,12.5811],[100.7474,12.5791],[100.7503,12.5719],[100.7539,12.5705],[100.7584,12.5659],[100.7609,12.5598],[100.768,12.5557],[100.7704,12.5487],[100.7726,12.545],[100.7778,12.5413],[100.7805,12.5369],[100.7845,12.5325],[100.7921,12.5259],[100.8016,12.5193],[100.804,12.5158],[100.8074,12.515],[100.8105,12.511],[100.813,12.5098],[100.8142,12.5107],[100.8151,12.5139],[100.8179,12.5166],[100.8207,12.5175],[100.8227,12.5168],[100.8242,12.5104],[100.8232,12.509],[100.82,12.5075],[100.8193,12.5054],[100.8196,12.5033],[100.8212,12.5002]]}},{"type":"Feature","properties":{"d":-35},"geometry":{"type":"LineString","coordinates":[[100.6175,12.7506],[100.6173,12.7549],[100.6154,12.7569],[100.6138,12.7553],[100.6132,12.7506]]}},{"type":"Feature","properties":{"d":-35},"geometry":{"type":"LineString","coordinates":[[100.8164,12.6454],[100.8155,12.6449],[100.8212,12.6402],[100.83,12.635],[100.8321,12.6343],[100.8337,12.6354],[100.8338,12.6392],[100.8314,12.6427],[100.8254,12.6446],[100.8164,12.6454]]}},{"type":"Feature","properties":{"d":-20},"geometry":{"type":"LineString","coordinates":[[101.0649,12.5008],[101.0657,12.5034],[101.0654,12.5051],[101.0621,12.5068]]}},{"type":"Feature","properties":{"d":-15},"geometry":{"type":"LineString","coordinates":[[100.8874,12.6234],[100.8865,12.6229],[100.8866,12.6216],[100.8877,12.6199],[100.8886,12.6197],[100.8895,12.6218],[100.8874,12.6234]]}},{"type":"Feature","properties":{"d":-20},"geometry":{"type":"LineString","coordinates":[[100.6843,13.0299],[100.6888,13.0291],[100.6931,13.0267],[100.696,13.0236],[100.6975,13.0198],[100.6974,13.014],[100.693,12.9996],[100.692,12.9906],[100.6932,12.9801],[100.6974,12.9633],[100.6977,12.9574],[100.6958,12.9471],[100.6855,12.9178],[100.6864,12.9148],[100.6924,12.9072],[100.6938,12.9026],[100.6923,12.8967],[100.6837,12.8852],[100.6889,12.8712],[100.6891,12.8606],[100.687,12.8552],[100.6825,12.849],[100.6787,12.8458],[100.6749,12.845],[100.6704,12.8463],[100.6533,12.8551],[100.6509,12.8569],[100.6495,12.8591],[100.6479,12.8682],[100.6486,12.8738],[100.6511,12.8786],[100.6585,12.887],[100.6591,12.8889],[100.6549,12.8951],[100.6519,12.9034],[100.6493,12.9211],[100.6479,12.9258],[100.6346,12.9441],[100.6328,12.9482],[100.6323,12.9518],[100.6346,12.9587],[100.6449,12.9738],[100.6507,12.9887],[100.6549,12.9965],[100.659,13.0015],[100.6682,13.0093],[100.6735,13.0215],[100.6764,13.0261],[100.68,13.0289],[100.6843,13.0299]]}},{"type":"Feature","properties":{"d":-20},"geometry":{"type":"LineString","coordinates":[[100.7777,12.7258],[100.7762,12.7252],[100.7762,12.7242],[100.7777,12.7234],[100.7791,12.7238],[100.7794,12.7251],[100.7777,12.7258]]}},{"type":"Feature","properties":{"d":-5},"geometry":{"type":"LineString","coordinates":[[100.8912,12.6095],[100.8892,12.6112],[100.89,12.6133],[100.8915,12.613],[100.8925,12.6116],[100.8924,12.6102],[100.8912,12.6095]]}},{"type":"Feature","properties":{"d":-5},"geometry":{"type":"LineString","coordinates":[[100.9536,12.5191],[100.9537,12.5302],[100.9567,12.5327],[100.9599,12.5328],[100.9614,12.531],[100.9628,12.5244],[100.9656,12.5204],[100.957,12.5093],[100.9559,12.5099],[100.9529,12.5144],[100.9531,12.5173]]}},{"type":"Feature","properties":{"d":-5},"geometry":{"type":"LineString","coordinates":[[100.9352,12.5701],[100.9325,12.5713],[100.9309,12.5738],[100.932,12.5773],[100.9344,12.579],[100.9367,12.578],[100.9377,12.5743],[100.9373,12.5712],[100.9352,12.5701]]}},{"type":"Feature","properties":{"d":-5},"geometry":{"type":"LineString","coordinates":[[100.873,12.6391],[100.8743,12.6419]]}},{"type":"Feature","properties":{"d":-20},"geometry":{"type":"LineString","coordinates":[[101.0621,12.5068],[101.059,12.5077],[101.0542,12.5114],[101.0483,12.5139],[101.0428,12.514],[101.0377,12.5154],[101.0249,12.5135],[101.002,12.5131],[100.9945,12.5101],[100.989,12.5091],[100.9829,12.5104],[100.9794,12.5145],[100.9751,12.5116],[100.9667,12.5086],[100.9645,12.5061],[100.9618,12.5097],[100.9583,12.5055],[100.9549,12.5058],[100.9528,12.5084],[100.9504,12.516],[100.9505,12.529],[100.9518,12.5325],[100.9536,12.5343],[100.9566,12.5359],[100.9588,12.5359],[100.9654,12.5321],[100.9685,12.528],[100.9743,12.5279],[100.9812,12.5254],[100.9911,12.5256],[100.9959,12.5268],[101.009,12.5315],[101.0189,12.5366],[101.0265,12.5416],[101.0355,12.5505],[101.037,12.5548],[101.0364,12.5584],[101.0332,12.5605],[101.0256,12.5612],[101.0147,12.559],[101.0051,12.5558],[100.9859,12.5565],[100.9843,12.5575],[100.9805,12.5662],[100.979,12.5676],[100.9768,12.5679],[100.972,12.5661],[100.9645,12.5543],[100.9556,12.5475],[100.953,12.5473],[100.9454,12.5489],[100.9334,12.5546],[100.9272,12.562],[100.9209,12.5648],[100.9037,12.5775],[100.9031,12.5797],[100.9045,12.5861],[100.9037,12.588],[100.8963,12.592],[100.8922,12.5963],[100.8842,12.5997],[100.8752,12.6082],[100.8715,12.6136],[100.8685,12.615],[100.869,12.6169],[100.8737,12.6213],[100.8734,12.6258],[100.8722,12.6264],[100.866,12.6253],[100.858,12.6305],[100.852,12.6376],[100.8475,12.6445],[100.8433,12.6523],[100.8425,12.6573],[100.8416,12.6589],[100.8381,12.6594],[100.8318,12.6572],[100.8261,12.6613],[100.8239,12.6618],[100.8186,12.6575],[100.8144,12.656],[100.8088,12.6597],[100.8036,12.6613],[100.7979,12.6648],[100.792,12.6656],[100.7847,12.665],[100.7825,12.6655],[100.7736,12.6731],[100.771,12.6832],[100.7666,12.6941],[100.7637,12.6987],[100.7597,12.7017],[100.7613,12.7057],[100.7624,12.712],[100.7645,12.7152],[100.7684,12.7179],[100.7693,12.7194],[100.7692,12.7213],[100.7668,12.7255],[100.7673,12.7313],[100.7747,12.7485],[100.7772,12.7563],[100.7844,12.79],[100.7839,12.7969],[100.7849,12.8039],[100.7868,12.8073],[100.7911,12.8029],[100.7992,12.8011],[100.801,12.7978],[100.7984,12.7905],[100.7972,12.7816],[100.7935,12.7464],[100.7941,12.7364],[100.7957,12.7358],[100.7995,12.7376],[100.803,12.7456],[100.805,12.7478],[100.8067,12.7481],[100.8082,12.7433],[100.808,12.736],[100.8071,12.7274],[100.8046,12.7231],[100.8099,12.7133],[100.8151,12.7083],[100.8236,12.7056],[100.8256,12.7079],[100.8268,12.713],[100.8243,12.7249],[100.8253,12.7437],[100.8244,12.7542],[100.8235,12.7565],[100.8176,12.7629],[100.8213,12.7736],[100.8207,12.7841],[100.8224,12.7933],[100.8221,12.8012],[100.8237,12.8106],[100.8184,12.8174],[100.816,12.8351],[100.8153,12.8362],[100.8142,12.836],[100.8092,12.8325],[100.8066,12.8286],[100.8053,12.8284],[100.8049,12.8306],[100.8062,12.8364],[100.8055,12.8423],[100.8059,12.8489],[100.804,12.8572],[100.8037,12.8629],[100.8051,12.8686],[100.7902,12.8717],[100.7849,12.8896],[100.7828,12.8921],[100.7773,12.8925],[100.7713,12.8961],[100.7631,12.9109],[100.7622,12.9139],[100.7628,12.917],[100.7682,12.9268],[100.7745,12.9319],[100.7767,12.9427],[100.7848,12.964],[100.7872,12.9741],[100.7897,12.9774],[100.7929,12.9785],[100.7945,12.9777],[100.7953,12.9757],[100.795,12.9514],[100.7986,12.9436],[100.7965,12.9374],[100.7959,12.927],[100.7967,12.9163],[100.799,12.9093],[100.8006,12.9088],[100.8017,12.91],[100.8028,12.9175],[100.8002,12.9229],[100.8001,12.9255],[100.8049,12.9389],[100.8056,12.9479],[100.8103,12.9605],[100.8173,13.0177],[100.8166,13.0243],[100.8209,13.0362],[100.8198,13.0514],[100.8185,13.053],[100.8168,13.0536],[100.8134,13.0513],[100.8124,13.0514],[100.808,13.0642],[100.808,13.0674],[100.811,13.0715],[100.811,13.0757],[100.8102,13.079],[100.808,13.0831],[100.8064,13.0931],[100.8032,13.0985],[100.8033,13.105],[100.8008,13.109],[100.7997,13.1153],[100.8012,13.1201],[100.7985,13.1293],[100.799,13.1375],[100.798,13.1412],[100.7984,13.1441],[100.7956,13.15],[100.7966,13.1557],[100.795,13.1598],[100.7944,13.1687],[100.7962,13.1734],[100.7962,13.1791],[100.8005,13.1835],[100.7958,13.1853],[100.795,13.1876],[100.7959,13.1891],[100.7989,13.1909],[100.8033,13.1893],[100.8047,13.1926],[100.8042,13.1956],[100.8018,13.1986],[100.8013,13.2007],[100.804,13.2274],[100.8036,13.2432],[100.8046,13.2508],[100.8041,13.2647],[100.8013,13.2799]]}},{"type":"Feature","properties":{"d":-5},"geometry":{"type":"LineString","coordinates":[[100.9139,12.6282],[100.9165,12.6363],[100.9167,12.6503],[100.9146,12.6546],[100.9072,12.6565],[100.9046,12.6562],[100.9018,12.6542],[100.9004,12.6512],[100.9012,12.6477],[100.9006,12.6455],[100.8922,12.6368],[100.876,12.6333],[100.8715,12.6312],[100.8677,12.6284],[100.8657,12.6297],[100.8637,12.6344],[100.8645,12.6362],[100.8666,12.6369]]}},{"type":"Feature","properties":{"d":-5},"geometry":{"type":"LineString","coordinates":[[100.9068,12.615],[100.9024,12.6167],[100.8986,12.6211],[100.8979,12.6264],[100.8984,12.6288],[100.8996,12.6302],[100.9015,12.6301],[100.9033,12.6283],[100.9086,12.6182],[100.9088,12.6159],[100.9068,12.615]]}},{"type":"Feature","properties":{"d":-5},"geometry":{"type":"LineString","coordinates":[[100.9082,12.6326],[100.9065,12.6336],[100.9065,12.6358],[100.9082,12.6373],[100.9105,12.6373],[100.9114,12.6362],[100.9113,12.6347],[100.9082,12.6326]]}},{"type":"Feature","properties":{"d":-20},"geometry":{"type":"LineString","coordinates":[[100.8244,12.7009],[100.8219,12.699],[100.8223,12.6972],[100.8252,12.6971],[100.8273,12.6981],[100.8263,12.7],[100.8244,12.7009]]}},{"type":"Feature","properties":{"d":-25},"geometry":{"type":"LineString","coordinates":[[100.8071,12.9948],[100.8052,12.9927],[100.8019,12.9843],[100.7976,12.9581],[100.7977,12.9501],[100.7988,12.948],[100.8005,12.947],[100.802,12.9485],[100.8043,12.9572],[100.8067,12.9624],[100.8091,12.9748],[100.809,12.9921],[100.8084,12.9939],[100.8071,12.9948]]}},{"type":"Feature","properties":{"d":-30},"geometry":{"type":"LineString","coordinates":[[100.6522,12.7503],[100.6519,12.7563],[100.6507,12.7611],[100.6485,12.7656],[100.645,12.7699],[100.6402,12.7736],[100.6312,12.7731],[100.6263,12.7756],[100.6194,12.7833],[100.6121,12.7954],[100.6039,12.8039],[100.5984,12.8065],[100.596,12.8058],[100.5944,12.804],[100.592,12.7963],[100.5893,12.7684],[100.589,12.7507]]}},{"type":"Feature","properties":{"d":-35},"geometry":{"type":"LineString","coordinates":[[100.831,12.5001],[100.8293,12.5033],[100.8297,12.5046],[100.8308,12.5052],[100.8325,12.5034],[100.8327,12.5001]]}},{"type":"Feature","properties":{"d":-30},"geometry":{"type":"LineString","coordinates":[[100.772,12.5005],[100.7676,12.5131],[100.762,12.5213],[100.759,12.5275],[100.7562,12.529],[100.7489,12.5284]]}}]}